{"type":"FeatureCollection", "features": [
{"type":"Feature","geometry":{"type":"Polygon","coordinates":[[[3.1727,50.012],[3.1927,49.9775],[3.118,49.9143],[3.0787,49.8224],[3.1184,49.706],[3.0978,49.6567],[3.1315,49.5434],[3.0958,49.5134],[3.1606,49.4516],[3.0938,49.4337],[3.0954,49.3771],[3.0429,49.3336],[2.9744,49.3023],[3.0269,49.2755],[3.0641,49.1927],[3.1169,49.1893],[3.1397,49.1526],[3.0719,49.1176],[3.1652,49.0997],[3.1717,49.0141],[3.3048,48.9488],[3.3303,48.9087],[3.4032,48.8647],[3.4852,48.8519],[3.5286,48.9121],[3.6016,48.9441],[3.6463,49.0406],[3.6,49.1207],[3.6223,49.1511],[3.7044,49.1814],[3.647,49.3152],[3.8475,49.3646],[3.9244,49.4062],[3.9613,49.3773],[4.0355,49.3599],[4.048,49.4056],[4.0407,49.5085],[4.0758,49.5183],[4.0766,49.5711],[4.0314,49.6143],[4.0993,49.6285],[4.127,49.6779],[4.1783,49.698],[4.2501,49.7571],[4.2096,49.7818],[4.2485,49.8565],[4.2331,49.9578],[4.1409,49.9788],[4.0871,49.9692],[3.9804,49.9954],[3.9235,50.0264],[3.7464,50.0536],[3.7152,50.0693],[3.6136,50.0254],[3.5448,50.0538],[3.4914,50.0189],[3.353,50.0359],[3.2802,50.0152],[3.2305,50.0313],[3.1727,50.012]]]},"properties":{"code":"02","nom":"Aisne"}},
{"type":"Feature","geometry":{"type":"Polygon","coordinates":[[[3.4148,48.3903],[3.4982,48.3691],[3.6168,48.2713],[3.6216,48.2257],[3.6679,48.1392],[3.7403,48.1697],[3.805,48.1025],[3.85,47.9838],[3.9147,47.9757],[3.9021,47.9392],[4.1118,47.927],[4.1992,47.9699],[4.2481,47.9293],[4.2934,47.9257],[4.309,47.9612],[4.4144,47.9682],[4.449,47.9572],[4.56,47.9714],[4.5358,48.0012],[4.5827,48.0295],[4.7042,48.0202],[4.6888,48.0731],[4.7306,48.1182],[4.8193,48.1032],[4.8501,48.1418],[4.8589,48.2636],[4.8097,48.3474],[4.7161,48.3949],[4.6535,48.4706],[4.6702,48.5319],[4.614,48.5538],[4.5454,48.5253],[4.4031,48.5613],[4.3159,48.6156],[4.3256,48.7003],[4.1664,48.7075],[4.0803,48.7011],[4.0559,48.6671],[4.0017,48.6639],[3.9492,48.6034],[3.8227,48.5161],[3.7309,48.5375],[3.634,48.5413],[3.5556,48.6203],[3.5039,48.6048],[3.4234,48.5336],[3.392,48.4243],[3.4148,48.3903]]]},"properties":{"code":"10","nom":"Aube"}},
{"type":"Feature","geometry":{"type":"Polygon","coordinates":[[[-1.1196,49.3556],[-1.1395,49.3099],[-1.1134,49.2613],[-1.0227,49.2034],[-0.9009,49.203],[-0.9315,49.1456],[-0.8866,49.1294],[-0.8691,49.0679],[-0.9427,48.9677],[-1.0712,48.8703],[-1.1326,48.8488],[-1.0895,48.7815],[-0.9671,48.7861],[-0.8409,48.7522],[-0.7806,48.7867],[-0.7147,48.7999],[-0.6572,48.8391],[-0.6264,48.8268],[-0.4638,48.8714],[-0.4115,48.8701],[-0.3462,48.822],[-0.3059,48.8583],[-0.1463,48.8344],[-0.0588,48.8536],[0.0564,48.9025],[0.1276,48.9522],[0.1565,48.9248],[0.2756,48.9647],[0.3338,48.9429],[0.4128,48.9506],[0.4368,49.0082],[0.3777,49.0495],[0.4249,49.1302],[0.3947,49.1501],[0.3947,49.2084],[0.3374,49.2315],[0.3828,49.264],[0.323,49.297],[0.2972,49.4299],[0.2199,49.4268],[0.1104,49.3943],[-0.0134,49.3212],[-0.0996,49.2976],[-0.2257,49.2818],[-0.4148,49.3356],[-0.5153,49.345],[-0.7222,49.347],[-0.8512,49.3625],[-0.9394,49.395],[-1.0782,49.3885],[-1.1196,49.3556]]]},"properties":{"code":"14","nom":"Calvados"}},
{"type":"Feature","geometry":{"type":"Polygon","coordinates":[[[2.5084,45.4785],[2.4875,45.4188],[2.4419,45.3843],[2.3783,45.4143],[2.3505,45.3276],[2.2714,45.2902],[2.1954,45.2209],[2.2137,45.1602],[2.1718,45.0815],[2.0952,45.056],[2.133,44.9855],[2.0629,44.9765],[2.0942,44.872],[2.1716,44.79],[2.1535,44.7531],[2.1694,44.6381],[2.2075,44.6155],[2.2084,44.6438],[2.3268,44.6697],[2.435,44.6389],[2.4832,44.6503],[2.4989,44.687],[2.5561,44.7213],[2.5627,44.7758],[2.5994,44.7928],[2.6027,44.8432],[2.7064,44.9072],[2.7383,44.9412],[2.802,44.8736],[2.8497,44.8715],[2.8796,44.803],[2.9345,44.7792],[2.9233,44.7286],[2.9817,44.6447],[3.0615,44.8172],[3.0995,44.8336],[3.1055,44.8868],[3.1411,44.9033],[3.1823,44.8637],[3.2497,44.9162],[3.3613,44.9714],[3.3472,45.0142],[3.2972,45.0361],[3.3258,45.0951],[3.288,45.1204],[3.2225,45.272],[3.118,45.2842],[3.1035,45.3544],[3.0167,45.2871],[2.9486,45.3091],[2.9216,45.3658],[2.8524,45.3923],[2.7149,45.3816],[2.6514,45.4427],[2.5084,45.4785]]]},"properties":{"code":"15","nom":"Cantal"}},
{"type":"Feature","geometry":{"type":"Polygon","coordinates":[[[0.8148,48.6702],[0.8506,48.5826],[0.9388,48.5506],[0.9666,48.5227],[0.9422,48.399],[0.8834,48.3567],[0.7854,48.3404],[0.7622,48.3069],[0.8305,48.2107],[0.7977,48.1945],[0.8825,48.1618],[0.8412,48.1031],[0.8909,48.1021],[0.9973,48.1275],[1.0086,48.0831],[1.1122,48.0807],[1.1212,48.0391],[1.2096,47.9685],[1.3086,47.9539],[1.4372,47.9765],[1.4552,48.0086],[1.5201,47.9823],[1.513,48.0287],[1.5941,48.0307],[1.6246,48.0672],[1.7448,48.0661],[1.8657,48.0839],[1.9143,48.1675],[1.937,48.169],[1.9655,48.2555],[1.9941,48.2866],[1.9766,48.3994],[1.9306,48.4041],[1.9221,48.4576],[1.9064,48.4401],[1.8015,48.4661],[1.7653,48.5694],[1.7092,48.578],[1.6025,48.6638],[1.5795,48.7018],[1.6264,48.7481],[1.5849,48.7633],[1.5912,48.8149],[1.5573,48.8916],[1.5015,48.9411],[1.4684,48.8922],[1.3622,48.8342],[1.377,48.7918],[1.3195,48.761],[1.1847,48.7726],[1.0316,48.7306],[0.8767,48.7155],[0.8148,48.6702]]]},"properties":{"code":"28","nom":"Eure-et-Loir"}},
{"type":"Feature","geometry":{"type":"MultiPolygon","coordinates":[[[[-2.0069,48.5661],[-2.0487,48.637],[-2.1335,48.6371],[-2.1237,48.6044],[-2.076,48.5677],[-2.0069,48.5661]]],[[[-1.948,48.5388],[-1.9125,48.5188],[-1.9548,48.3171],[-2.0141,48.2795],[-2.0533,48.2983],[-2.1101,48.2529],[-2.187,48.2464],[-2.2247,48.1706],[-2.2873,48.1337],[-2.2332,48.0756],[-2.2796,48.0264],[-2.2396,47.9995],[-2.1369,47.9791],[-2.0791,47.9195],[-2.1163,47.881],[-2.0495,47.8169],[-2.0897,47.7386],[-2.1315,47.7222],[-2.097,47.6314],[-2.0747,47.6517],[-1.9691,47.6884],[-1.864,47.707],[-1.7724,47.6985],[-1.6548,47.7126],[-1.5934,47.776],[-1.5281,47.7858],[-1.3904,47.8283],[-1.3529,47.7977],[-1.2459,47.7767],[-1.2382,47.81],[-1.1892,47.868],[-1.154,47.9658],[-1.1027,47.9891],[-1.0213,47.9949],[-1.0233,48.0689],[-1.0496,48.0898],[-1.1001,48.2593],[-1.045,48.3277],[-1.0828,48.4331],[-1.0702,48.5085],[-1.1471,48.5175],[-1.2066,48.5422],[-1.2722,48.5339],[-1.3772,48.4583],[-1.4899,48.4894],[-1.5333,48.548],[-1.5189,48.5666],[-1.5711,48.6264],[-1.7642,48.6036],[-1.8451,48.6164],[-1.8717,48.6474],[-1.8561,48.7049],[-1.9698,48.6863],[-2.029,48.6469],[-2.011,48.6047],[-1.948,48.5388]]]]},"properties":{"code":"35","nom":"Ille-et-Vilaine"}},
{"type":"Feature","geometry":{"type":"Polygon","coordinates":[[[5.5185,47.3042],[5.4883,47.2893],[5.4766,47.216],[5.44,47.1444],[5.386,47.082],[5.3222,47.073],[5.2829,47.0452],[5.3101,47.018],[5.2552,46.9799],[5.2633,46.9359],[5.317,46.9041],[5.4593,46.8552],[5.4568,46.831],[5.3702,46.8262],[5.3329,46.7961],[5.3902,46.7706],[5.3911,46.7287],[5.4411,46.6375],[5.3976,46.5798],[5.3621,46.5773],[5.3592,46.5226],[5.4195,46.5023],[5.4157,46.4731],[5.3106,46.4468],[5.3077,46.4168],[5.377,46.3814],[5.3735,46.3522],[5.4378,46.3151],[5.4731,46.2651],[5.542,46.2702],[5.6493,46.3395],[5.7147,46.3088],[5.7252,46.2607],[5.8498,46.2621],[5.9089,46.284],[5.9868,46.3649],[6.064,46.4162],[6.0739,46.4639],[6.1564,46.5455],[6.1381,46.5577],[6.0486,46.6077],[6.1038,46.6498],[6.0698,46.6895],[6.1803,46.7416],[6.2033,46.7727],[6.1518,46.8207],[6.0479,46.8486],[6.0058,46.8731],[5.9641,46.9481],[5.9686,46.9804],[5.8151,47.0203],[5.7685,47.0894],[5.8161,47.1343],[5.8115,47.1691],[5.7204,47.2199],[5.6987,47.265],[5.6021,47.2605],[5.5185,47.3042]]]},"properties":{"code":"39","nom":"Jura"}},
{"type":"Feature","geometry":{"type":"Polygon","coordinates":[[[-1.2539,44.4676],[-1.3123,44.1448],[-1.375,43.9138],[-1.4365,43.7106],[-1.4482,43.6423],[-1.5249,43.5297],[-1.4766,43.5392],[-1.4178,43.4978],[-1.2912,43.4982],[-1.1708,43.5456],[-1.1092,43.5141],[-0.9934,43.5054],[-0.8967,43.5505],[-0.7818,43.5642],[-0.7154,43.5411],[-0.6708,43.5667],[-0.6157,43.5444],[-0.5572,43.5428],[-0.4483,43.5961],[-0.406,43.5682],[-0.3037,43.5603],[-0.2428,43.585],[-0.2326,43.7141],[-0.1941,43.737],[-0.2271,43.8083],[-0.1925,43.8102],[-0.191,43.8752],[-0.2339,43.8911],[-0.1791,43.9379],[-0.0736,43.945],[-0.0154,43.9342],[0.0326,43.9002],[0.0766,43.9165],[0.0553,43.958],[0.076,43.9831],[0.0627,44.0008],[0.1008,44.0868],[0.1351,44.1242],[0.0346,44.1307],[-0.0042,44.15],[-0.1292,44.1524],[-0.1407,44.2264],[-0.1941,44.269],[-0.226,44.2648],[-0.2234,44.2059],[-0.2721,44.1938],[-0.3896,44.2095],[-0.3834,44.2863],[-0.4318,44.3226],[-0.5176,44.3391],[-0.5281,44.3647],[-0.6276,44.3981],[-0.6288,44.4432],[-0.7307,44.4464],[-0.8453,44.419],[-0.9192,44.4433],[-1.0075,44.4377],[-0.9807,44.4829],[-1.0852,44.5322],[-1.1065,44.5028],[-1.2539,44.4676]]]},"properties":{"code":"40","nom":"Landes"}},
{"type":"Feature","geometry":{"type":"Polygon","coordinates":[[[3.8995,46.2759],[3.8049,46.2549],[3.7898,46.1549],[3.8219,46.088],[3.8068,46.0456],[3.8254,45.996],[3.7889,45.9739],[3.7089,45.9738],[3.694,45.9307],[3.7544,45.886],[3.6998,45.7832],[3.7808,45.7244],[3.7761,45.6985],[3.8235,45.6324],[3.9036,45.599],[3.9544,45.556],[3.9751,45.4483],[3.8992,45.4103],[3.8974,45.3571],[3.9796,45.3751],[4.0248,45.3429],[4.1779,45.3926],[4.3082,45.371],[4.3665,45.337],[4.3625,45.2644],[4.4186,45.2754],[4.4831,45.2364],[4.6024,45.2517],[4.6145,45.3098],[4.6795,45.3461],[4.756,45.3657],[4.7569,45.4557],[4.7223,45.4943],[4.6617,45.4868],[4.6149,45.5755],[4.5198,45.5733],[4.4103,45.632],[4.3655,45.6985],[4.3913,45.7549],[4.3759,45.7821],[4.383,45.864],[4.3239,45.9005],[4.3437,45.9311],[4.2939,45.9534],[4.3061,46.0212],[4.2804,46.0529],[4.3216,46.1292],[4.4386,46.1679],[4.3881,46.2198],[4.2825,46.1569],[4.261,46.1788],[4.1324,46.1778],[4.1041,46.1984],[3.9888,46.1698],[3.9725,46.2027],[3.8901,46.2145],[3.8995,46.2759]]]},"properties":{"code":"42","nom":"Loire"}},
{"type":"Feature","geometry":{"type":"Polygon","coordinates":[[[1.9941,48.2866],[1.9655,48.2555],[1.937,48.169],[1.9143,48.1675],[1.8657,48.0839],[1.7448,48.0661],[1.6246,48.0672],[1.5941,48.0307],[1.513,48.0287],[1.5201,47.9823],[1.5254,47.9291],[1.5881,47.8764],[1.5337,47.8205],[1.5479,47.7698],[1.6973,47.7384],[1.7399,47.6615],[1.7986,47.6384],[1.8437,47.6863],[1.9424,47.6756],[2.0736,47.6818],[2.2026,47.6781],[2.2392,47.621],[2.2862,47.629],[2.373,47.5855],[2.4373,47.6098],[2.4914,47.5683],[2.5411,47.5741],[2.5999,47.5537],[2.6585,47.4879],[2.7194,47.4922],[2.768,47.5235],[2.8065,47.4945],[2.8746,47.5204],[2.9143,47.566],[2.9765,47.5694],[2.938,47.5989],[2.9542,47.6458],[2.8585,47.712],[2.8567,47.7609],[2.9351,47.7632],[3.0238,47.7866],[3.0103,47.9047],[3.0501,47.9115],[3.1284,47.971],[3.0883,48.0539],[3.0505,48.0723],[3.0295,48.1332],[2.9363,48.1634],[2.7989,48.1683],[2.7065,48.1248],[2.5381,48.1407],[2.5062,48.2385],[2.4238,48.2603],[2.4027,48.3207],[2.3698,48.3087],[2.1814,48.3137],[1.9941,48.2866]]]},"properties":{"code":"45","nom":"Loiret"}},
{"type":"Feature","geometry":{"type":"Polygon","coordinates":[[[0.2973,44.7623],[0.153,44.7305],[0.1337,44.6824],[0.1827,44.6611],[0.1536,44.6161],[0.0406,44.5531],[-0.0155,44.5051],[-0.0106,44.4185],[0.0182,44.3899],[-0.0858,44.3376],[-0.0348,44.2967],[-0.0666,44.2468],[-0.1407,44.2264],[-0.1292,44.1524],[-0.0042,44.15],[0.0346,44.1307],[0.1351,44.1242],[0.1008,44.0868],[0.0627,44.0008],[0.076,43.9831],[0.1668,43.9968],[0.1896,44.0146],[0.3041,43.9931],[0.3576,44.0164],[0.4424,44.0288],[0.4595,44.0552],[0.539,44.0537],[0.598,44.0782],[0.6666,44.0251],[0.7419,44.0652],[0.7529,44.1023],[0.8688,44.1263],[0.9191,44.2383],[0.9499,44.2764],[0.8735,44.3233],[0.8873,44.3664],[1.0498,44.3626],[1.0641,44.3785],[1.009,44.48],[1.0132,44.5361],[1.0751,44.5773],[0.9791,44.6436],[0.9275,44.6354],[0.87,44.5973],[0.817,44.627],[0.827,44.6919],[0.7291,44.6761],[0.6574,44.6779],[0.6305,44.7065],[0.4147,44.6463],[0.3656,44.6622],[0.3354,44.7374],[0.2973,44.7623]]]},"properties":{"code":"47","nom":"Lot-et-Garonne"}},
{"type":"Feature","geometry":{"type":"Polygon","coordinates":[[[4.951,49.2369],[4.9934,49.2096],[4.9398,49.1851],[4.9921,49.1149],[5.0077,49.035],[5.0363,49.0243],[5.0301,48.9569],[4.9362,48.9221],[4.913,48.8721],[4.9357,48.8406],[4.8888,48.8172],[4.9901,48.7418],[4.9884,48.6844],[5.0059,48.634],[5.0709,48.5957],[5.1184,48.5955],[5.2084,48.5386],[5.3495,48.482],[5.4701,48.4209],[5.616,48.4397],[5.679,48.4714],[5.7386,48.4661],[5.7652,48.4965],[5.7762,48.5404],[5.7161,48.5614],[5.7618,48.6094],[5.7577,48.6957],[5.714,48.7445],[5.7677,48.7901],[5.781,48.8267],[5.7472,48.9153],[5.8002,48.9467],[5.8231,49.0231],[5.8542,49.0424],[5.8186,49.0862],[5.7634,49.1079],[5.7445,49.1566],[5.7655,49.1981],[5.719,49.216],[5.7318,49.3113],[5.6881,49.4151],[5.6346,49.4374],[5.5291,49.4074],[5.4618,49.4527],[5.4709,49.4972],[5.4476,49.5174],[5.4269,49.5973],[5.3935,49.6171],[5.3118,49.5593],[5.163,49.5635],[5.1183,49.5931],[5.0624,49.4992],[5.1159,49.4219],[5.0264,49.3359],[5.0512,49.2741],[4.951,49.2369]]]},"properties":{"code":"55","nom":"Meuse"}},
{"type":"Feature","geometry":{"type":"Polygon","coordinates":[[[-0.8409,48.7522],[-0.799,48.7102],[-0.7373,48.6867],[-0.7734,48.6575],[-0.7526,48.6176],[-0.7742,48.5627],[-0.8604,48.5015],[-0.7573,48.4366],[-0.654,48.4443],[-0.5517,48.4731],[-0.5051,48.5058],[-0.4308,48.5118],[-0.3676,48.4929],[-0.3202,48.5229],[-0.2782,48.507],[-0.2069,48.5629],[-0.1694,48.537],[-0.1487,48.4581],[-0.0519,48.4533],[-0.0545,48.382],[-0.0026,48.3973],[0.0625,48.3822],[0.1162,48.4356],[0.1898,48.4619],[0.2959,48.4802],[0.364,48.4516],[0.3826,48.3338],[0.4313,48.3066],[0.4876,48.3078],[0.536,48.2498],[0.6832,48.2486],[0.7378,48.1891],[0.7977,48.1945],[0.8305,48.2107],[0.7622,48.3069],[0.7854,48.3404],[0.8834,48.3567],[0.9422,48.399],[0.9666,48.5227],[0.9388,48.5506],[0.8506,48.5826],[0.8148,48.6702],[0.7306,48.7052],[0.775,48.7375],[0.7335,48.7834],[0.6103,48.8313],[0.5525,48.8755],[0.4574,48.8798],[0.3862,48.9104],[0.4128,48.9506],[0.3338,48.9429],[0.2756,48.9647],[0.1565,48.9248],[0.1276,48.9522],[0.0564,48.9025],[-0.0588,48.8536],[-0.1463,48.8344],[-0.3059,48.8583],[-0.3462,48.822],[-0.4115,48.8701],[-0.4638,48.8714],[-0.6264,48.8268],[-0.6572,48.8391],[-0.7147,48.7999],[-0.7806,48.7867],[-0.8409,48.7522]]]},"properties":{"code":"61","nom":"Orne"}},
{"type":"Feature","geometry":{"type":"Polygon","coordinates":[[[2.0677,51.0065],[1.9158,50.9841],[1.7289,50.9379],[1.6641,50.8901],[1.5806,50.8673],[1.6042,50.7919],[1.5905,50.7298],[1.5607,50.6997],[1.5784,50.6403],[1.5854,50.5374],[1.5578,50.4047],[1.6415,50.3521],[1.6707,50.331],[1.7788,50.3619],[1.918,50.3118],[1.9461,50.2874],[2.0778,50.2488],[2.0957,50.2055],[2.2738,50.2268],[2.3702,50.2098],[2.4518,50.2303],[2.4957,50.1946],[2.3898,50.1555],[2.4145,50.1006],[2.4767,50.137],[2.5513,50.1416],[2.576,50.1134],[2.8578,50.0774],[2.8765,50.0422],[2.9715,50.0414],[3.0144,50.0591],[3.0903,50.0537],[3.1141,50.0922],[3.0958,50.1242],[3.1561,50.1837],[3.1734,50.2411],[2.9931,50.3798],[3.0377,50.4416],[3.0208,50.4818],[2.9647,50.5128],[2.899,50.5016],[2.826,50.5254],[2.8052,50.6033],[2.8405,50.6566],[2.769,50.6637],[2.7138,50.6313],[2.6305,50.618],[2.4959,50.6312],[2.4078,50.6728],[2.3409,50.7409],[2.2134,50.8105],[2.1839,50.8835],[2.0976,50.9984],[2.0677,51.0065]]]},"properties":{"code":"62","nom":"Pas-de-Calais"}},
{"type":"Feature","geometry":{"type":"Polygon","coordinates":[[[2.5654,46.143],[2.549,46.1141],[2.5944,45.9894],[2.4922,45.864],[2.4426,45.863],[2.388,45.8274],[2.4341,45.7699],[2.4921,45.7377],[2.5284,45.6819],[2.5143,45.6395],[2.4653,45.6008],[2.5163,45.5534],[2.5084,45.4785],[2.6514,45.4427],[2.7149,45.3816],[2.8524,45.3923],[2.9216,45.3658],[2.9486,45.3091],[3.0167,45.2871],[3.1035,45.3544],[3.1681,45.3523],[3.2907,45.4018],[3.4567,45.4003],[3.5013,45.4276],[3.5631,45.3949],[3.6258,45.3383],[3.6672,45.3762],[3.7723,45.3492],[3.8083,45.3916],[3.8974,45.3571],[3.8992,45.4103],[3.9751,45.4483],[3.9544,45.556],[3.9036,45.599],[3.8235,45.6324],[3.7761,45.6985],[3.7808,45.7244],[3.6998,45.7832],[3.7544,45.886],[3.694,45.9307],[3.5885,46.0241],[3.4635,46.0179],[3.419,46.0743],[3.3716,46.0551],[3.3024,46.0658],[3.1665,46.0657],[3.1008,46.0823],[3.0874,46.1131],[3.0165,46.1024],[2.9718,46.1218],[2.9096,46.2035],[2.9371,46.2429],[2.8557,46.2555],[2.8192,46.2418],[2.8103,46.1962],[2.7331,46.2233],[2.7225,46.1813],[2.6775,46.1728],[2.6407,46.1185],[2.5654,46.143]]]},"properties":{"code":"63","nom":"Puy-de-Dôme"}},
{"type":"Feature","geometry":{"type":"Polygon","coordinates":[[[7.6353,49.0542],[7.5784,48.9574],[7.5383,48.933],[7.4469,48.9658],[7.3268,48.9434],[7.2931,48.9734],[7.1742,49.0064],[7.1077,49.0441],[7.0549,49.0306],[6.9892,48.9599],[6.9646,48.9045],[7.0453,48.8715],[7.0545,48.8137],[7.1268,48.8011],[7.1494,48.8447],[7.3119,48.7673],[7.2425,48.6915],[7.2831,48.6381],[7.2563,48.5887],[7.1679,48.5276],[7.0794,48.5364],[7.1232,48.5136],[7.0974,48.4056],[7.1219,48.3333],[7.1983,48.3105],[7.2752,48.3052],[7.3486,48.2472],[7.4769,48.2035],[7.4706,48.161],[7.5194,48.1261],[7.5773,48.1204],[7.6678,48.2239],[7.7031,48.3088],[7.7399,48.3217],[7.736,48.4042],[7.7682,48.4897],[7.8052,48.5136],[7.8042,48.5923],[7.8398,48.6414],[7.8909,48.6631],[7.9631,48.7214],[7.9718,48.7576],[8.0963,48.8104],[8.1479,48.9038],[8.2143,48.9751],[8.0914,48.9893],[7.9346,49.0578],[7.8688,49.0342],[7.8004,49.0641],[7.7322,49.0444],[7.6353,49.0542]]]},"properties":{"code":"67","nom":"Bas-Rhin"}},
{"type":"Feature","geometry":{"type":"Polygon","coordinates":[[[7.1983,48.3105],[7.1336,48.2459],[7.0589,48.1373],[7.0019,48.0224],[6.9434,47.998],[6.9002,47.8912],[6.92,47.8503],[6.8462,47.8229],[6.8635,47.7852],[7.016,47.7432],[7.0463,47.6715],[7.005,47.6194],[7.0254,47.5927],[7.0863,47.5926],[7.1303,47.503],[7.1731,47.4472],[7.2463,47.4222],[7.3017,47.4378],[7.4034,47.4355],[7.5068,47.4956],[7.5034,47.542],[7.5847,47.5773],[7.5928,47.6018],[7.5223,47.6623],[7.5138,47.7028],[7.5481,47.7396],[7.5313,47.7868],[7.5636,47.8521],[7.5567,47.8799],[7.6221,47.9723],[7.5716,48.0304],[7.5773,48.1204],[7.5194,48.1261],[7.4706,48.161],[7.4769,48.2035],[7.3486,48.2472],[7.2752,48.3052],[7.1983,48.3105]]]},"properties":{"code":"68","nom":"Haut-Rhin"}},
{"type":"Feature","geometry":{"type":"Polygon","coordinates":[[[1.3797,50.065],[1.1944,49.968],[1.0659,49.9256],[0.9632,49.9199],[0.7697,49.8721],[0.702,49.8719],[0.5729,49.8497],[0.3206,49.7416],[0.2117,49.7145],[0.169,49.6907],[0.1545,49.6486],[0.0656,49.5126],[0.1212,49.4632],[0.339,49.4409],[0.5249,49.4779],[0.5819,49.4336],[0.6341,49.4345],[0.6653,49.402],[0.7649,49.4196],[0.8189,49.3982],[0.9181,49.3855],[0.9214,49.3386],[0.9577,49.2893],[1.0133,49.2523],[1.0481,49.2979],[1.134,49.3098],[1.1603,49.342],[1.2721,49.3463],[1.3452,49.4481],[1.4121,49.4565],[1.5042,49.438],[1.5754,49.4401],[1.6593,49.399],[1.7139,49.4092],[1.7663,49.4661],[1.7192,49.5082],[1.7451,49.5317],[1.7046,49.6054],[1.7252,49.6726],[1.6896,49.6948],[1.7838,49.7583],[1.7271,49.8289],[1.7125,49.8864],[1.6785,49.9181],[1.594,49.9491],[1.5739,49.9739],[1.4565,50.0378],[1.4465,50.0693],[1.3797,50.065]]]},"properties":{"code":"76","nom":"Seine-Maritime"}},
{"type":"Feature","geometry":{"type":"Polygon","coordinates":[[[2.9363,48.1634],[3.0295,48.1332],[3.0505,48.0723],[3.0883,48.0539],[3.1284,47.971],[3.0501,47.9115],[3.0103,47.9047],[3.0238,47.7866],[2.9351,47.7632],[2.8567,47.7609],[2.8585,47.712],[2.9542,47.6458],[2.938,47.5989],[2.9765,47.5694],[3.0256,47.5588],[3.102,47.588],[3.1221,47.5411],[3.2046,47.523],[3.2355,47.4892],[3.307,47.4947],[3.3463,47.4724],[3.3973,47.5089],[3.4879,47.4939],[3.5135,47.5277],[3.5806,47.4979],[3.5801,47.4649],[3.679,47.4455],[3.7148,47.4068],[3.7856,47.3905],[3.9707,47.3783],[3.9731,47.3327],[4.1061,47.3393],[4.0661,47.4073],[4.1194,47.4436],[4.1155,47.515],[4.1751,47.5533],[4.2124,47.628],[4.2684,47.6814],[4.2582,47.7274],[4.3325,47.7565],[4.3244,47.8472],[4.261,47.8439],[4.2934,47.9257],[4.2481,47.9293],[4.1992,47.9699],[4.1118,47.927],[3.9021,47.9392],[3.9147,47.9757],[3.85,47.9838],[3.805,48.1025],[3.7403,48.1697],[3.6679,48.1392],[3.6216,48.2257],[3.6168,48.2713],[3.4982,48.3691],[3.4148,48.3903],[3.3652,48.3723],[3.2544,48.365],[3.1677,48.3719],[3.0495,48.3601],[3.0273,48.3004],[3.0436,48.272],[3.0052,48.2077],[2.9363,48.1634]]]},"properties":{"code":"89","nom":"Yonne"}},
{"type":"Feature","geometry":{"type":"Polygon","coordinates":[[[2.5531,49.0098],[2.4595,48.955],[2.3664,48.9742],[2.291,48.951],[2.3199,48.9005],[2.3851,48.902],[2.4163,48.8492],[2.4956,48.8608],[2.5923,48.8074],[2.5626,48.8889],[2.6026,48.9294],[2.5531,49.0098]]]},"properties":{"code":"93","nom":"Seine-Saint-Denis"}},
{"type":"Feature","geometry":{"type":"Polygon","coordinates":[[[5.676,44.1914],[5.6396,44.1676],[5.5762,44.188],[5.544,44.1364],[5.4988,44.1157],[5.5026,44.0634],[5.5437,44.0287],[5.5121,43.946],[5.5676,43.9426],[5.6071,43.9138],[5.5738,43.8665],[5.5782,43.8299],[5.6544,43.8251],[5.7573,43.7294],[5.7813,43.7557],[5.9012,43.7326],[6.0361,43.6942],[6.1829,43.7622],[6.2167,43.7995],[6.357,43.7364],[6.4135,43.7604],[6.4144,43.7916],[6.5248,43.8064],[6.6364,43.7889],[6.6973,43.8737],[6.7456,43.8721],[6.8307,43.9184],[6.8846,43.8891],[6.9131,43.928],[6.8519,43.9548],[6.836,43.9906],[6.7457,44.0432],[6.7553,44.0786],[6.6865,44.1693],[6.724,44.2498],[6.7863,44.2885],[6.7961,44.3161],[6.8874,44.3611],[6.8929,44.4208],[6.9446,44.4321],[6.882,44.4773],[6.854,44.5291],[6.9335,44.576],[6.9483,44.6548],[6.9145,44.6595],[6.8398,44.6086],[6.7722,44.5889],[6.7372,44.5525],[6.6843,44.5413],[6.6324,44.4471],[6.5624,44.4455],[6.4139,44.4693],[6.362,44.5221],[6.3271,44.4636],[6.2933,44.4809],[6.2337,44.4638],[6.2625,44.4123],[6.2282,44.3817],[6.1556,44.462],[6.0837,44.4778],[6.0711,44.4505],[5.9537,44.3951],[5.9123,44.2715],[5.8239,44.2789],[5.8818,44.211],[5.8286,44.2007],[5.7555,44.2102],[5.676,44.1914]]]},"properties":{"code":"04","nom":"Alpes-de-Haute-Provence"}},
{"type":"Feature","geometry":{"type":"Polygon","coordinates":[[[6.2606,45.1268],[6.2294,45.1087],[6.2039,45.0125],[6.2518,44.9967],[6.3182,45.0039],[6.329,44.9473],[6.3588,44.9413],[6.3554,44.8548],[6.3029,44.8733],[6.2505,44.8527],[6.1362,44.8641],[6.0563,44.8159],[6.0302,44.8381],[5.9495,44.8045],[5.9152,44.7547],[5.8504,44.7507],[5.8015,44.7068],[5.7906,44.6533],[5.726,44.6394],[5.6417,44.6511],[5.6496,44.6179],[5.5973,44.5433],[5.6308,44.5316],[5.6036,44.4655],[5.5133,44.4911],[5.4185,44.4249],[5.4931,44.3372],[5.5135,44.3475],[5.6316,44.3283],[5.6468,44.2671],[5.6866,44.2669],[5.676,44.1914],[5.7555,44.2102],[5.8286,44.2007],[5.8818,44.211],[5.8239,44.2789],[5.9123,44.2715],[5.9537,44.3951],[6.0711,44.4505],[6.0837,44.4778],[6.1556,44.462],[6.2282,44.3817],[6.2625,44.4123],[6.2337,44.4638],[6.2933,44.4809],[6.3271,44.4636],[6.362,44.5221],[6.4139,44.4693],[6.5624,44.4455],[6.6324,44.4471],[6.6843,44.5413],[6.7372,44.5525],[6.7722,44.5889],[6.8398,44.6086],[6.9145,44.6595],[6.9483,44.6548],[6.9871,44.6901],[7.0771,44.6809],[6.9996,44.7894],[7.0068,44.8393],[6.9337,44.862],[6.8599,44.8529],[6.7498,44.9074],[6.7635,44.9712],[6.7408,45.0167],[6.6739,45.0196],[6.6621,45.0716],[6.63,45.1093],[6.4813,45.0941],[6.4862,45.0561],[6.3939,45.0618],[6.3629,45.1045],[6.2606,45.1268]]]},"properties":{"code":"05","nom":"Hautes-Alpes"}},
{"type":"Feature","geometry":{"type":"Polygon","coordinates":[[[4.4831,45.2364],[4.4804,45.1953],[4.4433,45.1408],[4.3766,45.1444],[4.3753,45.1048],[4.2898,44.9973],[4.2217,44.9613],[4.2159,44.9327],[4.1562,44.8733],[4.0396,44.8732],[4.0284,44.8341],[3.937,44.7954],[3.8625,44.7439],[3.9052,44.5927],[3.9452,44.5738],[3.9982,44.4598],[4.0684,44.4051],[4.0515,44.3173],[4.1267,44.3377],[4.1429,44.3134],[4.2588,44.2648],[4.2884,44.3147],[4.3361,44.3395],[4.4032,44.3339],[4.399,44.2889],[4.4405,44.2841],[4.4576,44.3416],[4.5035,44.3402],[4.5587,44.3024],[4.6492,44.2704],[4.6506,44.3298],[4.6674,44.4307],[4.6987,44.4523],[4.6936,44.5422],[4.7103,44.5815],[4.7791,44.6547],[4.7662,44.7786],[4.8225,44.8171],[4.8866,44.9367],[4.8377,45.0048],[4.8125,45.1645],[4.8005,45.2984],[4.756,45.3657],[4.6795,45.3461],[4.6145,45.3098],[4.6024,45.2517],[4.4831,45.2364]]]},"properties":{"code":"07","nom":"Ardèche"}},
{"type":"Feature","geometry":{"type":"Polygon","coordinates":[[[4.2331,49.9578],[4.2485,49.8565],[4.2096,49.7818],[4.2501,49.7571],[4.1783,49.698],[4.127,49.6779],[4.0993,49.6285],[4.0314,49.6143],[4.0766,49.5711],[4.0758,49.5183],[4.0407,49.5085],[4.048,49.4056],[4.1432,49.4042],[4.2483,49.3823],[4.3068,49.3278],[4.4226,49.2806],[4.5759,49.2966],[4.6251,49.2357],[4.6861,49.2568],[4.8269,49.2358],[4.8942,49.2591],[4.951,49.2369],[5.0512,49.2741],[5.0264,49.3359],[5.1159,49.4219],[5.0624,49.4992],[5.1183,49.5931],[5.163,49.5635],[5.3118,49.5593],[5.3935,49.6171],[5.3503,49.6309],[5.2692,49.6961],[5.1662,49.6929],[5.0935,49.7637],[5.0632,49.7619],[4.8739,49.8208],[4.8542,49.8648],[4.8833,49.8962],[4.8502,49.9465],[4.7909,49.9584],[4.8436,50.0934],[4.8796,50.152],[4.8243,50.1607],[4.7622,50.1364],[4.6832,50.0649],[4.6889,49.9955],[4.5931,49.9855],[4.5104,49.9467],[4.4469,49.9375],[4.3337,49.9636],[4.2331,49.9578]]]},"properties":{"code":"08","nom":"Ardennes"}},
{"type":"Feature","geometry":{"type":"Polygon","coordinates":[[[1.6884,43.2736],[1.6372,43.2551],[1.5475,43.2757],[1.4637,43.2106],[1.4254,43.2566],[1.3436,43.3156],[1.2933,43.2853],[1.3744,43.2137],[1.3146,43.19],[1.2275,43.1839],[1.219,43.1532],[1.2914,43.1241],[1.2236,43.0861],[1.2087,43.118],[1.1241,43.1569],[1.0589,43.1418],[1.0388,43.1005],[0.9852,43.0671],[1.007,43.0076],[0.9791,42.9744],[0.8749,42.9578],[0.8324,42.92],[0.8583,42.8257],[0.9273,42.7893],[1.0751,42.7853],[1.1301,42.7521],[1.1619,42.711],[1.2302,42.7276],[1.325,42.7239],[1.3896,42.6851],[1.4351,42.6061],[1.5493,42.6558],[1.6015,42.628],[1.6874,42.6239],[1.7259,42.5904],[1.7861,42.5736],[1.8745,42.5814],[1.9073,42.6086],[1.9718,42.6169],[2.0005,42.6616],[2.166,42.6639],[2.1759,42.6828],[2.0572,42.7562],[2.0079,42.7341],[1.9554,42.7367],[1.9082,42.7677],[1.8805,42.8527],[1.9869,42.871],[1.9851,43.0263],[1.9411,43.0527],[1.9495,43.1195],[1.8248,43.1458],[1.7101,43.1897],[1.7238,43.2245],[1.6884,43.2736]]]},"properties":{"code":"09","nom":"Ariège"}},
{"type":"Feature","geometry":{"type":"MultiPolygon","coordinates":[[[[-1.4809,46.21],[-1.5144,46.2577],[-1.5614,46.2372],[-1.5353,46.2044],[-1.4616,46.2021],[-1.355,46.1559],[-1.2762,46.1473],[-1.2911,46.1862],[-1.3639,46.2075],[-1.4809,46.21]]],[[[-1.1294,46.3103],[-1.1112,46.2613],[-1.199,46.2132],[-1.2239,46.1659],[-1.1264,46.1243],[-1.0527,46.0112],[-1.099,45.9905],[-1.0643,45.9499],[-1.1372,45.8199],[-1.2426,45.7816],[-1.2372,45.7059],[-1.1159,45.647],[-1.0096,45.6114],[-1.0257,45.5747],[-0.8411,45.4351],[-0.774,45.3692],[-0.7527,45.3218],[-0.5945,45.3211],[-0.5595,45.2977],[-0.4292,45.2795],[-0.4051,45.2398],[-0.4175,45.204],[-0.3941,45.1648],[-0.3423,45.1676],[-0.2754,45.1414],[-0.2551,45.1141],[-0.153,45.0888],[-0.0877,45.1214],[-0.0402,45.1024],[-0.037,45.139],[0.0043,45.1916],[0.0058,45.2214],[-0.0442,45.2479],[-0.1154,45.2481],[-0.1088,45.289],[-0.2267,45.3214],[-0.2838,45.3099],[-0.2809,45.3599],[-0.2498,45.4087],[-0.2674,45.4557],[-0.2462,45.4916],[-0.2967,45.5645],[-0.3759,45.6089],[-0.4089,45.6562],[-0.4158,45.7417],[-0.4488,45.7659],[-0.3213,45.7845],[-0.2731,45.8066],[-0.2217,45.7757],[-0.1531,45.7957],[-0.1154,45.8707],[-0.1317,45.911],[-0.1029,45.9697],[-0.2817,46.0797],[-0.4005,46.0847],[-0.5061,46.1067],[-0.547,46.1442],[-0.62,46.1378],[-0.6907,46.2192],[-0.7515,46.2451],[-0.7505,46.3043],[-0.8399,46.3404],[-0.9349,46.3129],[-1.0138,46.3556],[-1.1294,46.3103]]],[[[-1.2503,45.846],[-1.1956,45.8297],[-1.1884,45.8867],[-1.2236,45.9131],[-1.2479,45.9904],[-1.3128,45.993],[-1.3659,46.0273],[-1.3839,45.9514],[-1.2662,45.8782],[-1.2503,45.846]]]]},"properties":{"code":"17","nom":"Charente-Maritime"}},
{"type":"Feature","geometry":{"type":"Polygon","coordinates":[[[1.8987,45.6983],[1.8713,45.6647],[1.7839,45.6804],[1.7122,45.6413],[1.6377,45.5804],[1.5572,45.5494],[1.4804,45.5659],[1.4121,45.5281],[1.3501,45.4669],[1.2871,45.4899],[1.2532,45.4442],[1.2596,45.3984],[1.3228,45.3827],[1.2726,45.3282],[1.2394,45.3228],[1.2271,45.272],[1.2775,45.2421],[1.2965,45.1402],[1.3864,45.1029],[1.3996,45.0612],[1.4483,45.0193],[1.5357,45.0463],[1.651,45.025],[1.7506,44.955],[1.7749,44.9237],[1.8239,44.9277],[1.9082,44.9784],[2.0629,44.9765],[2.133,44.9855],[2.0952,45.056],[2.1718,45.0815],[2.2137,45.1602],[2.1954,45.2209],[2.2714,45.2902],[2.3505,45.3276],[2.3783,45.4143],[2.4419,45.3843],[2.4875,45.4188],[2.5084,45.4785],[2.5163,45.5534],[2.4653,45.6008],[2.5143,45.6395],[2.5284,45.6819],[2.4921,45.7377],[2.4358,45.6993],[2.3492,45.7095],[2.3378,45.6806],[2.194,45.699],[2.1743,45.7322],[2.1135,45.7248],[2.0176,45.7555],[1.8987,45.6983]]]},"properties":{"code":"19","nom":"Corrèze"}},
{"type":"Feature","geometry":{"type":"Polygon","coordinates":[[[0.6297,45.7146],[0.6007,45.6721],[0.4996,45.6173],[0.4963,45.5445],[0.3565,45.4655],[0.3079,45.4609],[0.2706,45.4204],[0.2493,45.363],[0.2666,45.2977],[0.1277,45.2091],[0.0534,45.2269],[0.0043,45.1916],[-0.037,45.139],[-0.0402,45.1024],[0.0461,45.1132],[0.0733,45.0701],[0.0074,44.9473],[0.0344,44.9155],[-0.0154,44.8577],[0.083,44.8312],[0.1704,44.8267],[0.2418,44.8569],[0.2973,44.7623],[0.3354,44.7374],[0.3656,44.6622],[0.4147,44.6463],[0.6305,44.7065],[0.6574,44.6779],[0.7291,44.6761],[0.827,44.6919],[0.817,44.627],[0.87,44.5973],[0.9275,44.6354],[0.9791,44.6436],[1.0751,44.5773],[1.1538,44.6394],[1.1467,44.6703],[1.2246,44.6843],[1.2878,44.7148],[1.3228,44.7651],[1.2996,44.7969],[1.3641,44.8116],[1.3614,44.8408],[1.4419,44.8776],[1.4133,44.9994],[1.4483,45.0193],[1.3996,45.0612],[1.3864,45.1029],[1.2965,45.1402],[1.2775,45.2421],[1.2271,45.272],[1.2394,45.3228],[1.2726,45.3282],[1.3228,45.3827],[1.2596,45.3984],[1.2532,45.4442],[1.1198,45.4878],[1.1673,45.5248],[1.0804,45.534],[1.0358,45.6002],[0.9345,45.6116],[0.8115,45.5759],[0.7515,45.6183],[0.7758,45.6676],[0.7165,45.6949],[0.6713,45.6863],[0.6297,45.7146]]]},"properties":{"code":"24","nom":"Dordogne"}},
{"type":"Feature","geometry":{"type":"Polygon","coordinates":[[[0.2972,49.4299],[0.323,49.297],[0.3828,49.264],[0.3374,49.2315],[0.3947,49.2084],[0.3947,49.1501],[0.4249,49.1302],[0.3777,49.0495],[0.4368,49.0082],[0.4128,48.9506],[0.3862,48.9104],[0.4574,48.8798],[0.5525,48.8755],[0.6103,48.8313],[0.7335,48.7834],[0.775,48.7375],[0.7306,48.7052],[0.8148,48.6702],[0.8767,48.7155],[1.0316,48.7306],[1.1847,48.7726],[1.3195,48.761],[1.377,48.7918],[1.3622,48.8342],[1.4684,48.8922],[1.5015,48.9411],[1.4974,48.9796],[1.4578,49.0263],[1.5218,49.0685],[1.6088,49.0779],[1.6558,49.1302],[1.6757,49.2119],[1.7044,49.2322],[1.7105,49.2645],[1.7756,49.2997],[1.7594,49.3681],[1.7139,49.4092],[1.6593,49.399],[1.5754,49.4401],[1.5042,49.438],[1.4121,49.4565],[1.3452,49.4481],[1.2721,49.3463],[1.1603,49.342],[1.134,49.3098],[1.0481,49.2979],[1.0133,49.2523],[0.9577,49.2893],[0.9214,49.3386],[0.9181,49.3855],[0.8189,49.3982],[0.7649,49.4196],[0.6653,49.402],[0.6341,49.4345],[0.5819,49.4336],[0.5249,49.4779],[0.339,49.4409],[0.2972,49.4299]]]},"properties":{"code":"27","nom":"Eure"}},
{"type":"Feature","geometry":{"type":"Polygon","coordinates":[[[0.23,47.6084],[0.2015,47.5443],[0.2201,47.502],[0.1809,47.4534],[0.1853,47.4247],[0.079,47.2828],[0.0538,47.1637],[0.0764,47.1239],[0.1361,47.1216],[0.1742,47.0713],[0.2982,47.0539],[0.3007,46.9738],[0.4387,46.9296],[0.5061,46.9592],[0.5983,46.9568],[0.567,47.0023],[0.6926,46.9743],[0.7043,46.9033],[0.7903,46.8524],[0.8119,46.7945],[0.8675,46.7482],[0.9888,46.7615],[1.0499,46.9806],[1.0776,47.0158],[1.1614,47.0396],[1.2231,47.0243],[1.2731,47.0378],[1.3117,47.097],[1.3654,47.122],[1.3267,47.1862],[1.2769,47.2547],[1.2235,47.2941],[1.1621,47.2722],[1.1081,47.2984],[1.1228,47.354],[1.1075,47.4113],[1.1324,47.4465],[1.0453,47.5315],[1.0763,47.5632],[1.0334,47.607],[0.919,47.6326],[0.8639,47.5996],[0.8595,47.6692],[0.7353,47.6954],[0.7121,47.6818],[0.6144,47.6942],[0.5429,47.6562],[0.4566,47.6388],[0.379,47.5691],[0.3233,47.5929],[0.23,47.6084]]]},"properties":{"code":"37","nom":"Indre-et-Loire"}},
{"type":"Feature","geometry":{"type":"Polygon","coordinates":[[[3.3613,44.9714],[3.2497,44.9162],[3.1823,44.8637],[3.1411,44.9033],[3.1055,44.8868],[3.0995,44.8336],[3.0615,44.8172],[2.9817,44.6447],[3.0836,44.559],[3.0685,44.5035],[3.1357,44.4549],[3.1197,44.3834],[3.1543,44.3084],[3.1252,44.2845],[3.2299,44.2263],[3.3578,44.1979],[3.3736,44.1708],[3.4397,44.1291],[3.6335,44.1227],[3.6378,44.1755],[3.6786,44.1828],[3.797,44.1274],[3.8621,44.1301],[3.9526,44.1708],[3.9513,44.2478],[3.9229,44.3052],[3.9523,44.3284],[3.8859,44.388],[3.9444,44.3996],[3.9982,44.4598],[3.9452,44.5738],[3.9052,44.5927],[3.8625,44.7439],[3.7406,44.8387],[3.6664,44.8288],[3.6595,44.8699],[3.5943,44.8754],[3.5894,44.8322],[3.4758,44.8154],[3.418,44.9008],[3.4128,44.9448],[3.3613,44.9714]]]},"properties":{"code":"48","nom":"Lozère"}},
{"type":"Feature","geometry":{"type":"Polygon","coordinates":[[[2.8746,47.5204],[2.9289,47.4446],[2.8735,47.3484],[2.9834,47.2598],[2.9817,47.222],[3.0281,47.1291],[3.0232,47.0626],[3.0757,47.0191],[3.0793,46.9551],[3.0503,46.9106],[3.0681,46.8777],[3.0321,46.7949],[3.0491,46.7581],[3.1298,46.7272],[3.1632,46.6935],[3.2155,46.6829],[3.2698,46.7167],[3.3467,46.6844],[3.3787,46.7113],[3.4341,46.7119],[3.4473,46.6636],[3.4872,46.6583],[3.5504,46.7159],[3.6294,46.7495],[3.7362,46.7525],[3.7973,46.7015],[3.9234,46.7389],[3.992,46.7768],[4.0627,46.7894],[4.0562,46.8433],[4.0938,46.8747],[4.0372,46.9182],[4.0394,46.9851],[4.072,47.0545],[4.0387,47.08],[4.0614,47.121],[4.116,47.1233],[4.1819,47.1505],[4.2098,47.1554],[4.2307,47.1989],[4.178,47.2503],[4.1355,47.2374],[4.1061,47.3393],[3.9731,47.3327],[3.9707,47.3783],[3.7856,47.3905],[3.7148,47.4068],[3.679,47.4455],[3.5801,47.4649],[3.5806,47.4979],[3.5135,47.5277],[3.4879,47.4939],[3.3973,47.5089],[3.3463,47.4724],[3.307,47.4947],[3.2355,47.4892],[3.2046,47.523],[3.1221,47.5411],[3.102,47.588],[3.0256,47.5588],[2.9765,47.5694],[2.9143,47.566],[2.8746,47.5204]]]},"properties":{"code":"58","nom":"Nièvre"}},
{"type":"Feature","geometry":{"type":"Polygon","coordinates":[[[1.7838,49.7583],[1.6896,49.6948],[1.7252,49.6726],[1.7046,49.6054],[1.7451,49.5317],[1.7192,49.5082],[1.7663,49.4661],[1.7139,49.4092],[1.7594,49.3681],[1.7756,49.2997],[1.7105,49.2645],[1.7044,49.2322],[1.7421,49.1802],[1.7955,49.1853],[1.8852,49.1626],[1.9968,49.1765],[2.0809,49.2098],[2.2525,49.1529],[2.3109,49.1864],[2.3463,49.1618],[2.4409,49.1458],[2.5905,49.0797],[2.6333,49.1084],[2.735,49.0605],[3.0085,49.0915],[3.0719,49.1176],[3.1397,49.1526],[3.1169,49.1893],[3.0641,49.1927],[3.0269,49.2755],[2.9744,49.3023],[3.0429,49.3336],[3.0954,49.3771],[3.0938,49.4337],[3.1606,49.4516],[3.0958,49.5134],[3.1315,49.5434],[3.0978,49.6567],[3.1184,49.706],[3.063,49.7126],[2.9157,49.7027],[2.7936,49.656],[2.7995,49.6206],[2.6891,49.6256],[2.6707,49.5814],[2.5715,49.5971],[2.5047,49.6395],[2.3731,49.6563],[2.2472,49.7016],[2.1214,49.6881],[1.9332,49.7196],[1.8939,49.699],[1.7838,49.7583]]]},"properties":{"code":"60","nom":"Oise"}},
{"type":"Feature","geometry":{"type":"Polygon","coordinates":[[[-0.2428,43.585],[-0.3037,43.5603],[-0.406,43.5682],[-0.4483,43.5961],[-0.5572,43.5428],[-0.6157,43.5444],[-0.6708,43.5667],[-0.7154,43.5411],[-0.7818,43.5642],[-0.8967,43.5505],[-0.9934,43.5054],[-1.1092,43.5141],[-1.1708,43.5456],[-1.2912,43.4982],[-1.4178,43.4978],[-1.4766,43.5392],[-1.5249,43.5297],[-1.5974,43.4375],[-1.6391,43.4084],[-1.762,43.3759],[-1.7297,43.2957],[-1.6658,43.3141],[-1.6089,43.2521],[-1.5647,43.2879],[-1.5053,43.2928],[-1.3828,43.2533],[-1.3838,43.1908],[-1.4139,43.1292],[-1.4717,43.0811],[-1.4352,43.045],[-1.3548,43.0285],[-1.3433,43.0954],[-1.2643,43.0446],[-1.2311,43.0545],[-1.0064,42.989],[-0.9465,42.9541],[-0.81,42.9514],[-0.7516,42.9669],[-0.7298,42.8966],[-0.5438,42.7932],[-0.5097,42.8254],[-0.4397,42.7965],[-0.3926,42.7996],[-0.3134,42.8494],[-0.3271,42.9158],[-0.2816,42.9336],[-0.2915,42.9878],[-0.2239,43.0337],[-0.191,43.1112],[-0.1461,43.1282],[-0.1177,43.1803],[-0.0679,43.1771],[-0.0725,43.2244],[-0.017,43.2704],[-0.0461,43.3009],[0.0096,43.4221],[-0.0428,43.4104],[-0.069,43.4373],[-0.034,43.4749],[-0.0401,43.5126],[-0.0968,43.5824],[-0.1764,43.5964],[-0.2428,43.585]]]},"properties":{"code":"64","nom":"Pyrénées-Atlantiques"}},
{"type":"Feature","geometry":{"type":"Polygon","coordinates":[[[4.3881,46.2198],[4.4386,46.1679],[4.3216,46.1292],[4.2804,46.0529],[4.3061,46.0212],[4.2939,45.9534],[4.3437,45.9311],[4.3239,45.9005],[4.383,45.864],[4.3759,45.7821],[4.3913,45.7549],[4.3655,45.6985],[4.4103,45.632],[4.5198,45.5733],[4.6149,45.5755],[4.6617,45.4868],[4.7223,45.4943],[4.7569,45.4557],[4.8685,45.5234],[4.8087,45.5723],[4.9015,45.6063],[4.972,45.6127],[5.0351,45.6372],[5.1311,45.7077],[5.0945,45.7395],[5.1011,45.8134],[4.9238,45.804],[4.9215,45.8327],[4.8645,45.9046],[4.7291,45.9491],[4.7546,45.9736],[4.7395,46.0472],[4.7503,46.0941],[4.7974,46.1407],[4.7802,46.1767],[4.7305,46.1784],[4.6931,46.3022],[4.6353,46.2993],[4.6186,46.2648],[4.504,46.2671],[4.4584,46.297],[4.4058,46.2961],[4.3881,46.2198]]]},"properties":{"code":"69","nom":"Rhône"}},
{"type":"Feature","geometry":{"type":"Polygon","coordinates":[[[4.116,47.1233],[4.0614,47.121],[4.0387,47.08],[4.072,47.0545],[4.0394,46.9851],[4.0372,46.9182],[4.0938,46.8747],[4.0562,46.8433],[4.0627,46.7894],[3.992,46.7768],[3.9234,46.7389],[3.7973,46.7015],[3.7362,46.7525],[3.6294,46.7495],[3.6379,46.7072],[3.697,46.6606],[3.7433,46.5676],[3.8018,46.5199],[3.834,46.5311],[3.8905,46.4812],[3.9579,46.4898],[3.998,46.4655],[3.9772,46.3992],[3.9866,46.3192],[3.8995,46.2759],[3.8901,46.2145],[3.9725,46.2027],[3.9888,46.1698],[4.1041,46.1984],[4.1324,46.1778],[4.261,46.1788],[4.2825,46.1569],[4.3881,46.2198],[4.4058,46.2961],[4.4584,46.297],[4.504,46.2671],[4.6186,46.2648],[4.6353,46.2993],[4.6931,46.3022],[4.7305,46.1784],[4.7802,46.1767],[4.811,46.2599],[4.8882,46.403],[4.8918,46.4399],[4.94,46.5172],[5.011,46.5103],[5.0524,46.4849],[5.142,46.5084],[5.2011,46.5082],[5.2151,46.4684],[5.3106,46.4468],[5.4157,46.4731],[5.4195,46.5023],[5.3592,46.5226],[5.3621,46.5773],[5.3976,46.5798],[5.4411,46.6375],[5.3911,46.7287],[5.3902,46.7706],[5.3329,46.7961],[5.3702,46.8262],[5.4568,46.831],[5.4593,46.8552],[5.317,46.9041],[5.2633,46.9359],[5.2552,46.9799],[5.1063,46.9558],[5.0493,46.9816],[4.7281,46.9194],[4.6232,46.9408],[4.4937,47.0284],[4.4063,47.05],[4.4055,47.0816],[4.2596,47.1143],[4.2098,47.1554],[4.1819,47.1505],[4.116,47.1233]]]},"properties":{"code":"71","nom":"Saône-et-Loire"}},
{"type":"Feature","geometry":{"type":"Polygon","coordinates":[[[2.3199,48.9005],[2.2317,48.8691],[2.2551,48.8348],[2.3319,48.817],[2.4163,48.8492],[2.3851,48.902],[2.3199,48.9005]]]},"properties":{"code":"75","nom":"Paris"}},
{"type":"Feature","geometry":{"type":"Polygon","coordinates":[[[2.2006,48.9087],[2.2059,48.9497],[2.0849,49.0147],[2.0248,48.9988],[1.9378,49.0218],[1.9085,49.048],[1.8239,49.0764],[1.7235,49.045],[1.6737,49.0782],[1.6088,49.0779],[1.5218,49.0685],[1.4578,49.0263],[1.4974,48.9796],[1.5015,48.9411],[1.5573,48.8916],[1.5912,48.8149],[1.5849,48.7633],[1.6264,48.7481],[1.5795,48.7018],[1.6025,48.6638],[1.7092,48.578],[1.7653,48.5694],[1.8015,48.4661],[1.9064,48.4401],[1.9221,48.4576],[1.9674,48.5331],[2.0176,48.5576],[2.02,48.6421],[2.0822,48.6859],[2.1119,48.7396],[2.2266,48.7761],[2.1516,48.817],[2.1529,48.8733],[2.2006,48.9087]]]},"properties":{"code":"78","nom":"Yvelines"}},
{"type":"Feature","geometry":{"type":"Polygon","coordinates":[[[1.9902,44.1494],[1.9197,44.1629],[1.8417,44.1437],[1.7775,44.0968],[1.7455,44.1163],[1.659,44.1164],[1.6914,44.0243],[1.6186,43.974],[1.5523,43.963],[1.5556,43.9183],[1.5555,43.8683],[1.591,43.8155],[1.6448,43.8003],[1.6604,43.7418],[1.7064,43.7162],[1.7309,43.6578],[1.6878,43.6307],[1.7795,43.587],[1.8248,43.5808],[1.8826,43.5209],[2.0181,43.4703],[2.0291,43.4369],[2.0728,43.3957],[2.2242,43.4318],[2.2591,43.4599],[2.4036,43.4187],[2.4331,43.4352],[2.5658,43.423],[2.6061,43.4311],[2.6595,43.4802],[2.6586,43.5258],[2.6156,43.5666],[2.6433,43.6501],[2.7112,43.6456],[2.7545,43.6141],[2.8159,43.6401],[2.916,43.66],[2.9355,43.6947],[2.9211,43.7361],[2.8137,43.7617],[2.7428,43.729],[2.6813,43.744],[2.5642,43.8413],[2.5767,43.8817],[2.555,43.9214],[2.4993,43.9506],[2.5229,43.9813],[2.4599,44.0514],[2.4102,44.0559],[2.3892,44.0935],[2.1525,44.1977],[2.1061,44.1944],[1.9902,44.1494]]]},"properties":{"code":"81","nom":"Tarn"}},
{"type":"Feature","geometry":{"type":"Polygon","coordinates":[[[1.0641,44.3785],[1.0498,44.3626],[0.8873,44.3664],[0.8735,44.3233],[0.9499,44.2764],[0.9191,44.2383],[0.8688,44.1263],[0.7529,44.1023],[0.7419,44.0652],[0.7758,44.0359],[0.8604,44.0408],[0.7601,43.9422],[0.8629,43.9233],[0.8994,43.8647],[0.9062,43.7843],[0.954,43.7874],[1.1446,43.8223],[1.2192,43.7708],[1.3609,43.8211],[1.3568,43.8842],[1.4479,43.8736],[1.5556,43.9183],[1.5523,43.963],[1.6186,43.974],[1.6914,44.0243],[1.659,44.1164],[1.7455,44.1163],[1.7775,44.0968],[1.8417,44.1437],[1.9197,44.1629],[1.9902,44.1494],[1.9767,44.1799],[1.9022,44.2043],[1.9704,44.2764],[1.9014,44.2791],[1.8596,44.3203],[1.8821,44.3401],[1.806,44.3366],[1.6995,44.3138],[1.6516,44.2868],[1.5691,44.2984],[1.5205,44.2633],[1.4536,44.2541],[1.3804,44.2249],[1.2814,44.2358],[1.2171,44.2769],[1.1079,44.3274],[1.0641,44.3785]]]},"properties":{"code":"82","nom":"Tarn-et-Garonne"}},
{"type":"Feature","geometry":{"type":"Polygon","coordinates":[[[5.7536,43.7246],[5.8132,43.689],[5.7991,43.6605],[5.7002,43.6417],[5.6821,43.6137],[5.7246,43.5509],[5.6988,43.4822],[5.7519,43.4343],[5.6828,43.3992],[5.7609,43.2673],[5.6839,43.2361],[5.6719,43.1793],[5.6949,43.1436],[5.8127,43.1094],[5.8046,43.0783],[5.8575,43.0466],[5.9412,43.1077],[6.005,43.1038],[6.0314,43.0775],[6.1241,43.0793],[6.184,43.1085],[6.2653,43.121],[6.3683,43.0899],[6.3876,43.1449],[6.4935,43.1502],[6.5596,43.1886],[6.6355,43.1725],[6.6593,43.1959],[6.6773,43.2788],[6.666,43.3182],[6.7398,43.4129],[6.8595,43.4182],[6.918,43.4477],[6.9337,43.4801],[6.8842,43.5025],[6.8795,43.5354],[6.908,43.5991],[6.7987,43.6282],[6.7608,43.6665],[6.7535,43.7382],[6.6827,43.7579],[6.6364,43.7889],[6.5248,43.8064],[6.4144,43.7916],[6.4135,43.7604],[6.357,43.7364],[6.2167,43.7995],[6.1829,43.7622],[6.0361,43.6942],[5.9012,43.7326],[5.7813,43.7557],[5.7573,43.7294],[5.7536,43.7246]]]},"properties":{"code":"83","nom":"Var"}},
{"type":"Feature","geometry":{"type":"MultiPolygon","coordinates":[[[[-1.1486,47.0295],[-1.2028,47.0418],[-1.2712,47.0839],[-1.2946,47.0395],[-1.3786,47.0309],[-1.373,46.9522],[-1.4561,46.9263],[-1.4821,47.0379],[-1.5523,47.0183],[-1.5536,46.9815],[-1.5008,46.8839],[-1.5485,46.8601],[-1.6898,46.8905],[-1.7511,46.9296],[-1.831,46.932],[-1.9432,46.9947],[-1.9804,47.0289],[-2.0274,47.0099],[-2.0627,46.9481],[-2.1538,46.8901],[-2.1445,46.8264],[-1.9429,46.6927],[-1.856,46.6086],[-1.8123,46.4934],[-1.7771,46.4928],[-1.6271,46.4142],[-1.5021,46.3973],[-1.4659,46.3424],[-1.3667,46.3486],[-1.2074,46.2666],[-1.2011,46.3163],[-1.1294,46.3103],[-1.0138,46.3556],[-0.9349,46.3129],[-0.8399,46.3404],[-0.7505,46.3043],[-0.5576,46.3635],[-0.5378,46.3865],[-0.6406,46.4162],[-0.6124,46.4587],[-0.6335,46.5265],[-0.6021,46.5333],[-0.6141,46.6204],[-0.6441,46.638],[-0.6562,46.7008],[-0.7273,46.7676],[-0.7009,46.8086],[-0.7816,46.8428],[-0.8153,46.8794],[-0.8291,46.9334],[-0.892,46.9758],[-0.9335,47.0089],[-1.0554,47.0057],[-1.1486,47.0295]]],[[[-2.1981,46.9512],[-2.2872,47.0246],[-2.302,46.9976],[-2.2644,46.9609],[-2.1981,46.9512]]]]},"properties":{"code":"85","nom":"Vendée"}},
{"type":"Feature","geometry":{"type":"Polygon","coordinates":[[[0.8234,46.1286],[0.8179,46.0479],[0.867,46.0184],[0.9256,46.0105],[0.9426,45.9574],[0.8629,45.9198],[0.7822,45.8211],[0.7164,45.8056],[0.7149,45.7631],[0.6297,45.7146],[0.6713,45.6863],[0.7165,45.6949],[0.7758,45.6676],[0.7515,45.6183],[0.8115,45.5759],[0.9345,45.6116],[1.0358,45.6002],[1.0804,45.534],[1.1673,45.5248],[1.1198,45.4878],[1.2532,45.4442],[1.2871,45.4899],[1.3501,45.4669],[1.4121,45.5281],[1.4804,45.5659],[1.5572,45.5494],[1.6377,45.5804],[1.7122,45.6413],[1.7839,45.6804],[1.8713,45.6647],[1.8987,45.6983],[1.8751,45.7328],[1.8809,45.7977],[1.7727,45.8428],[1.6766,45.8351],[1.6024,45.8575],[1.6087,45.9334],[1.5473,45.9168],[1.5325,45.9528],[1.5492,46.0354],[1.4528,46.1798],[1.3749,46.2154],[1.4438,46.3059],[1.4152,46.3472],[1.356,46.4001],[1.3031,46.371],[1.2164,46.3678],[1.1773,46.3839],[1.1298,46.3605],[1.027,46.343],[1.0059,46.281],[0.9073,46.2853],[0.7963,46.211],[0.8234,46.1286]]]},"properties":{"code":"87","nom":"Haute-Vienne"}},
{"type":"Feature","geometry":{"type":"Polygon","coordinates":[[[5.4701,48.4209],[5.4087,48.3831],[5.4182,48.3398],[5.4822,48.3562],[5.6409,48.2424],[5.7108,48.2199],[5.6843,48.145],[5.6305,48.084],[5.6968,48.0772],[5.7777,48.0314],[5.7873,47.9526],[5.85,47.9628],[5.8847,47.926],[5.9475,47.9797],[6.0023,47.9561],[6.0726,48.0157],[6.1561,48.0069],[6.168,47.9524],[6.238,47.9328],[6.2773,47.9538],[6.3662,47.9619],[6.4317,47.9438],[6.4786,47.8855],[6.5422,47.9026],[6.6018,47.9444],[6.6455,47.904],[6.7848,47.8496],[6.8235,47.8131],[6.8462,47.8229],[6.92,47.8503],[6.9002,47.8912],[6.9434,47.998],[7.0019,48.0224],[7.0589,48.1373],[7.1336,48.2459],[7.1983,48.3105],[7.1219,48.3333],[7.0974,48.4056],[7.1232,48.5136],[6.983,48.4791],[6.8908,48.4181],[6.8152,48.3988],[6.6995,48.4131],[6.585,48.4605],[6.567,48.419],[6.1784,48.3976],[6.1167,48.354],[5.9616,48.3499],[5.8561,48.5068],[5.7652,48.4965],[5.7386,48.4661],[5.679,48.4714],[5.616,48.4397],[5.4701,48.4209]]]},"properties":{"code":"88","nom":"Vosges"}},
{"type":"Feature","geometry":{"type":"Polygon","coordinates":[[[2.291,48.951],[2.2006,48.9087],[2.1529,48.8733],[2.1516,48.817],[2.2266,48.7761],[2.3207,48.7488],[2.3319,48.817],[2.2551,48.8348],[2.2317,48.8691],[2.3199,48.9005],[2.291,48.951]]]},"properties":{"code":"92","nom":"Hauts-de-Seine"}},
{"type":"Feature","geometry":{"type":"Polygon","coordinates":[[[3.0321,46.7949],[2.9599,46.8039],[2.8276,46.7353],[2.7745,46.7189],[2.705,46.7394],[2.5966,46.6372],[2.615,46.5533],[2.5367,46.5197],[2.4829,46.5327],[2.352,46.5122],[2.2858,46.4535],[2.281,46.4204],[2.323,46.3293],[2.3919,46.33],[2.4789,46.2811],[2.5163,46.2394],[2.5286,46.1849],[2.5654,46.143],[2.6407,46.1185],[2.6775,46.1728],[2.7225,46.1813],[2.7331,46.2233],[2.8103,46.1962],[2.8192,46.2418],[2.8557,46.2555],[2.9371,46.2429],[2.9096,46.2035],[2.9718,46.1218],[3.0165,46.1024],[3.0874,46.1131],[3.1008,46.0823],[3.1665,46.0657],[3.3024,46.0658],[3.3716,46.0551],[3.419,46.0743],[3.4635,46.0179],[3.5885,46.0241],[3.694,45.9307],[3.7089,45.9738],[3.7889,45.9739],[3.8254,45.996],[3.8068,46.0456],[3.8219,46.088],[3.7898,46.1549],[3.8049,46.2549],[3.8995,46.2759],[3.9866,46.3192],[3.9772,46.3992],[3.998,46.4655],[3.9579,46.4898],[3.8905,46.4812],[3.834,46.5311],[3.8018,46.5199],[3.7433,46.5676],[3.697,46.6606],[3.6379,46.7072],[3.6294,46.7495],[3.5504,46.7159],[3.4872,46.6583],[3.4473,46.6636],[3.4341,46.7119],[3.3787,46.7113],[3.3467,46.6844],[3.2698,46.7167],[3.2155,46.6829],[3.1632,46.6935],[3.1298,46.7272],[3.0491,46.7581],[3.0321,46.7949]]]},"properties":{"code":"03","nom":"Allier"}},
{"type":"Feature","geometry":{"type":"Polygon","coordinates":[[[6.8874,44.3611],[6.7961,44.3161],[6.7863,44.2885],[6.724,44.2498],[6.6865,44.1693],[6.7553,44.0786],[6.7457,44.0432],[6.836,43.9906],[6.8519,43.9548],[6.9131,43.928],[6.8846,43.8891],[6.8307,43.9184],[6.7456,43.8721],[6.6973,43.8737],[6.6364,43.7889],[6.6827,43.7579],[6.7535,43.7382],[6.7608,43.6665],[6.7987,43.6282],[6.908,43.5991],[6.8795,43.5354],[6.8842,43.5025],[6.9337,43.4801],[6.9718,43.5455],[7.0404,43.5416],[7.1265,43.6053],[7.1677,43.6574],[7.2259,43.6623],[7.2419,43.6885],[7.3203,43.6913],[7.5285,43.7905],[7.4954,43.8644],[7.5592,43.8973],[7.5671,43.9437],[7.6486,43.9741],[7.665,44.0307],[7.7169,44.0818],[7.6745,44.118],[7.6709,44.1537],[7.5057,44.1436],[7.427,44.1129],[7.282,44.1434],[7.1889,44.1978],[7.1411,44.201],[7.071,44.2329],[7.0081,44.2364],[6.9934,44.2809],[6.9224,44.3483],[6.8874,44.3611]]]},"properties":{"code":"06","nom":"Alpes-Maritimes"}},
{"type":"Feature","geometry":{"type":"Polygon","coordinates":[[[1.6884,43.2736],[1.7238,43.2245],[1.7101,43.1897],[1.8248,43.1458],[1.9495,43.1195],[1.9411,43.0527],[1.9851,43.0263],[1.9869,42.871],[1.8805,42.8527],[1.9082,42.7677],[1.9554,42.7367],[2.0079,42.7341],[2.0572,42.7562],[2.1759,42.6828],[2.166,42.6639],[2.322,42.7078],[2.3575,42.7341],[2.3271,42.8374],[2.3822,42.8485],[2.4525,42.8369],[2.509,42.8498],[2.6976,42.8304],[2.74,42.8376],[2.7891,42.896],[2.8653,42.9183],[2.9171,42.8849],[3.0435,42.8381],[3.0606,42.9171],[3.0428,42.9602],[3.0656,43.0217],[3.1172,43.1018],[3.1683,43.1573],[3.2406,43.2128],[3.201,43.2492],[3.1472,43.247],[3.0047,43.2885],[3.0044,43.3201],[2.8328,43.3224],[2.7722,43.2578],[2.6591,43.293],[2.6016,43.2987],[2.54,43.3462],[2.5658,43.423],[2.4331,43.4352],[2.4036,43.4187],[2.2591,43.4599],[2.2242,43.4318],[2.0728,43.3957],[2.0291,43.4369],[1.9101,43.4041],[1.8587,43.4438],[1.8041,43.3917],[1.8134,43.3414],[1.7477,43.3437],[1.6884,43.2736]]]},"properties":{"code":"11","nom":"Aude"}},
{"type":"Feature","geometry":{"type":"Polygon","coordinates":[[[8.5734,42.3814],[8.6891,42.2635],[8.6167,42.2555],[8.5703,42.2303],[8.5902,42.1639],[8.6605,42.1036],[8.7103,42.0958],[8.7413,42.0409],[8.6564,42.0093],[8.6689,41.9824],[8.5977,41.9532],[8.6415,41.9099],[8.7214,41.9093],[8.7549,41.9326],[8.8031,41.8914],[8.7678,41.8459],[8.7713,41.8112],[8.6845,41.747],[8.7172,41.7228],[8.9145,41.6897],[8.8773,41.6525],[8.7931,41.6296],[8.7885,41.5577],[8.8417,41.5466],[8.9384,41.4897],[8.9595,41.4921],[9.0822,41.442],[9.0955,41.4124],[9.2197,41.3682],[9.2289,41.4253],[9.2659,41.466],[9.2876,41.5302],[9.3409,41.5592],[9.3272,41.6164],[9.3875,41.6574],[9.4073,41.7676],[9.4023,41.8587],[9.3292,41.8368],[9.2275,41.8556],[9.2211,42.0276],[9.1608,42.026],[9.1197,42.1078],[9.0722,42.1302],[9.0457,42.2069],[8.9048,42.2539],[8.8196,42.3176],[8.6408,42.3734],[8.5734,42.3814]]]},"properties":{"code":"2A","nom":"Corse-du-Sud"}},
{"type":"Feature","geometry":{"type":"Polygon","coordinates":[[[-2.1237,48.6044],[-2.1643,48.5789],[-2.224,48.5954],[-2.2591,48.645],[-2.3129,48.6809],[-2.4734,48.6225],[-2.6313,48.5381],[-2.6816,48.5311],[-2.8196,48.5935],[-2.8269,48.6506],[-2.9479,48.7272],[-2.9437,48.7583],[-3.0294,48.7759],[-3.114,48.8667],[-3.1679,48.8531],[-3.2318,48.8674],[-3.4307,48.7972],[-3.5132,48.835],[-3.585,48.7755],[-3.5494,48.7457],[-3.5848,48.7171],[-3.5813,48.67],[-3.6592,48.6592],[-3.6494,48.6102],[-3.5539,48.5409],[-3.6041,48.4964],[-3.5904,48.4289],[-3.6076,48.3885],[-3.5546,48.3778],[-3.5568,48.3355],[-3.5184,48.2823],[-3.5578,48.2285],[-3.5648,48.1857],[-3.4795,48.186],[-3.3368,48.1711],[-3.2722,48.14],[-3.1925,48.1644],[-3.1553,48.1585],[-3.1164,48.2064],[-3.0335,48.1994],[-3,48.1617],[-2.9537,48.1708],[-2.7819,48.1206],[-2.6523,48.1193],[-2.6701,48.0479],[-2.6312,48.0355],[-2.5748,48.0704],[-2.4948,48.1578],[-2.4089,48.1686],[-2.3714,48.1221],[-2.2873,48.1337],[-2.2247,48.1706],[-2.187,48.2464],[-2.1101,48.2529],[-2.0533,48.2983],[-2.0141,48.2795],[-1.9548,48.3171],[-1.9125,48.5188],[-1.948,48.5388],[-2.0069,48.5661],[-2.076,48.5677],[-2.1237,48.6044]]]},"properties":{"code":"22","nom":"Côtes-d'Armor"}},
{"type":"Feature","geometry":{"type":"Polygon","coordinates":[[[2.1678,46.4241],[2.0889,46.4089],[1.9931,46.4309],[1.8195,46.43],[1.7984,46.4548],[1.7277,46.389],[1.6836,46.4182],[1.6448,46.3868],[1.5223,46.4265],[1.4152,46.3472],[1.4438,46.3059],[1.3749,46.2154],[1.4528,46.1798],[1.5492,46.0354],[1.5325,45.9528],[1.5473,45.9168],[1.6087,45.9334],[1.6024,45.8575],[1.6766,45.8351],[1.7727,45.8428],[1.8809,45.7977],[1.8751,45.7328],[1.8987,45.6983],[2.0176,45.7555],[2.1135,45.7248],[2.1743,45.7322],[2.194,45.699],[2.3378,45.6806],[2.3492,45.7095],[2.4358,45.6993],[2.4921,45.7377],[2.4341,45.7699],[2.388,45.8274],[2.4426,45.863],[2.4922,45.864],[2.5944,45.9894],[2.549,46.1141],[2.5654,46.143],[2.5286,46.1849],[2.5163,46.2394],[2.4789,46.2811],[2.3919,46.33],[2.323,46.3293],[2.281,46.4204],[2.1678,46.4241]]]},"properties":{"code":"23","nom":"Creuse"}},
{"type":"Feature","geometry":{"type":"Polygon","coordinates":[[[6.807,47.5628],[6.781,47.5364],[6.6856,47.563],[6.6467,47.5353],[6.5818,47.5399],[6.5536,47.4928],[6.4014,47.5203],[6.3343,47.506],[6.2623,47.4306],[6.08,47.354],[5.9894,47.3276],[5.9414,47.3443],[5.6987,47.265],[5.7204,47.2199],[5.8115,47.1691],[5.8161,47.1343],[5.7685,47.0894],[5.8151,47.0203],[5.9686,46.9804],[5.9641,46.9481],[6.0058,46.8731],[6.0479,46.8486],[6.1518,46.8207],[6.2033,46.7727],[6.1803,46.7416],[6.0698,46.6895],[6.1038,46.6498],[6.0486,46.6077],[6.1381,46.5577],[6.1107,46.5763],[6.2853,46.6912],[6.4381,46.7618],[6.431,46.8124],[6.4646,46.8902],[6.4327,46.9286],[6.5188,46.9709],[6.6403,47.0028],[6.7141,47.0491],[6.7399,47.1081],[6.8583,47.1644],[6.8824,47.2016],[6.955,47.2429],[6.9429,47.2878],[6.9931,47.2955],[7.0622,47.3442],[7.0162,47.3718],[6.9173,47.3562],[6.9405,47.4334],[6.9076,47.4945],[6.9057,47.5474],[6.807,47.5628]]]},"properties":{"code":"25","nom":"Doubs"}},
{"type":"Feature","geometry":{"type":"Polygon","coordinates":[[[-3.6592,48.6592],[-3.6609,48.6941],[-3.8324,48.7119],[-3.8977,48.6464],[-3.9495,48.6529],[-3.9757,48.699],[-4.1869,48.6865],[-4.2728,48.6496],[-4.3514,48.6761],[-4.4628,48.6271],[-4.5615,48.6238],[-4.6306,48.5777],[-4.7306,48.5563],[-4.7755,48.491],[-4.7591,48.4704],[-4.7933,48.4162],[-4.7609,48.3728],[-4.7723,48.3292],[-4.6806,48.3556],[-4.6087,48.3379],[-4.4249,48.3976],[-4.4418,48.3536],[-4.2909,48.342],[-4.308,48.2972],[-4.3845,48.2752],[-4.4238,48.2917],[-4.5666,48.2863],[-4.6198,48.2639],[-4.564,48.2322],[-4.4484,48.2356],[-4.3011,48.1914],[-4.2717,48.1331],[-4.307,48.0892],[-4.3744,48.1102],[-4.4886,48.0865],[-4.6682,48.0702],[-4.723,48.0336],[-4.5648,47.9998],[-4.5369,48.0125],[-4.4536,47.9818],[-4.3626,47.8893],[-4.3624,47.7957],[-4.1923,47.7974],[-4.1636,47.8492],[-4.0777,47.8665],[-4.0416,47.846],[-3.9115,47.8703],[-3.9025,47.8359],[-3.8006,47.7876],[-3.7325,47.8029],[-3.6808,47.7768],[-3.5323,47.7683],[-3.523,47.8491],[-3.4034,47.8701],[-3.3926,47.9545],[-3.4848,47.9669],[-3.5553,47.9931],[-3.6402,47.9852],[-3.695,48.0935],[-3.7321,48.1091],[-3.6958,48.1522],[-3.5648,48.1857],[-3.5578,48.2285],[-3.5184,48.2823],[-3.5568,48.3355],[-3.5546,48.3778],[-3.6076,48.3885],[-3.5904,48.4289],[-3.6041,48.4964],[-3.5539,48.5409],[-3.6494,48.6102],[-3.6592,48.6592]]]},"properties":{"code":"29","nom":"Finistère"}},
{"type":"Feature","geometry":{"type":"Polygon","coordinates":[[[3.3736,44.1708],[3.3361,44.1587],[3.3289,44.079],[3.4508,44.0208],[3.4055,43.9703],[3.356,43.9462],[3.3584,43.9138],[3.4245,43.9116],[3.5307,43.8556],[3.5754,43.8655],[3.6236,43.917],[3.727,43.969],[3.7873,43.9669],[3.8249,43.9193],[3.8308,43.8664],[3.9174,43.8856],[4.002,43.8115],[4.1448,43.7339],[4.1944,43.6543],[4.1502,43.5856],[4.101,43.5544],[4.1391,43.5319],[4.1377,43.4819],[4.2303,43.4602],[4.2381,43.4976],[4.3536,43.5474],[4.4094,43.5611],[4.427,43.6207],[4.4872,43.6992],[4.5398,43.7073],[4.593,43.6875],[4.6548,43.8064],[4.6419,43.8675],[4.7391,43.9241],[4.8421,43.9865],[4.788,44.0651],[4.7075,44.1037],[4.7221,44.1874],[4.6492,44.2704],[4.5587,44.3024],[4.5035,44.3402],[4.4576,44.3416],[4.4405,44.2841],[4.399,44.2889],[4.4032,44.3339],[4.3361,44.3395],[4.2884,44.3147],[4.2588,44.2648],[4.1429,44.3134],[4.1267,44.3377],[4.0515,44.3173],[4.0684,44.4051],[3.9982,44.4598],[3.9444,44.3996],[3.8859,44.388],[3.9523,44.3284],[3.9229,44.3052],[3.9513,44.2478],[3.9526,44.1708],[3.8621,44.1301],[3.797,44.1274],[3.6786,44.1828],[3.6378,44.1755],[3.6335,44.1227],[3.4397,44.1291],[3.3736,44.1708]]]},"properties":{"code":"30","nom":"Gard"}},
{"type":"Feature","geometry":{"type":"Polygon","coordinates":[[[-1.0257,45.5747],[-1.0912,45.5624],[-1.157,45.4704],[-1.1623,45.2979],[-1.2229,44.8648],[-1.223,44.7096],[-1.1605,44.7747],[-1.0364,44.6936],[-1.0054,44.648],[-1.0808,44.6406],[-1.1915,44.6607],[-1.2274,44.5758],[-1.2603,44.5395],[-1.2539,44.4676],[-1.1065,44.5028],[-1.0852,44.5322],[-0.9807,44.4829],[-1.0075,44.4377],[-0.9192,44.4433],[-0.8453,44.419],[-0.7307,44.4464],[-0.6288,44.4432],[-0.6276,44.3981],[-0.5281,44.3647],[-0.5176,44.3391],[-0.4318,44.3226],[-0.3834,44.2863],[-0.3896,44.2095],[-0.2721,44.1938],[-0.2234,44.2059],[-0.226,44.2648],[-0.1941,44.269],[-0.1407,44.2264],[-0.0666,44.2468],[-0.0348,44.2967],[-0.0858,44.3376],[0.0182,44.3899],[-0.0106,44.4185],[-0.0155,44.5051],[0.0406,44.5531],[0.1536,44.6161],[0.1827,44.6611],[0.1337,44.6824],[0.153,44.7305],[0.2973,44.7623],[0.2418,44.8569],[0.1704,44.8267],[0.083,44.8312],[-0.0154,44.8577],[0.0344,44.9155],[0.0074,44.9473],[0.0733,45.0701],[0.0461,45.1132],[-0.0402,45.1024],[-0.0877,45.1214],[-0.153,45.0888],[-0.2551,45.1141],[-0.2754,45.1414],[-0.3423,45.1676],[-0.3941,45.1648],[-0.4175,45.204],[-0.4051,45.2398],[-0.4292,45.2795],[-0.5595,45.2977],[-0.5945,45.3211],[-0.7527,45.3218],[-0.774,45.3692],[-0.8411,45.4351],[-1.0257,45.5747]]]},"properties":{"code":"33","nom":"Gironde"}},
{"type":"Feature","geometry":{"type":"Polygon","coordinates":[[[1.3267,47.1862],[1.3654,47.122],[1.3117,47.097],[1.2731,47.0378],[1.2231,47.0243],[1.1614,47.0396],[1.0776,47.0158],[1.0499,46.9806],[0.9888,46.7615],[0.8675,46.7482],[0.9247,46.6928],[0.8943,46.6257],[0.942,46.5808],[1.0148,46.5678],[1.0206,46.5371],[1.0876,46.5382],[1.1459,46.5064],[1.1516,46.4492],[1.2127,46.4322],[1.1773,46.3839],[1.2164,46.3678],[1.3031,46.371],[1.356,46.4001],[1.4152,46.3472],[1.5223,46.4265],[1.6448,46.3868],[1.6836,46.4182],[1.7277,46.389],[1.7984,46.4548],[1.8195,46.43],[1.9931,46.4309],[2.0889,46.4089],[2.1678,46.4241],[2.1517,46.458],[2.2044,46.4844],[2.1587,46.5573],[2.1856,46.6029],[2.1407,46.6956],[2.0658,46.7425],[2.1154,46.7744],[2.0488,46.8295],[2.1262,46.8799],[2.0707,46.934],[2.0934,47.0157],[2.0515,47.04],[2.0484,47.106],[1.9664,47.1254],[1.8827,47.102],[1.7746,47.1308],[1.8421,47.178],[1.8391,47.2193],[1.7761,47.2314],[1.7058,47.2659],[1.5924,47.2767],[1.4485,47.238],[1.3267,47.1862]]]},"properties":{"code":"36","nom":"Indre"}},
{"type":"Feature","geometry":{"type":"Polygon","coordinates":[[[5.6237,45.6133],[5.5455,45.7136],[5.4226,45.8071],[5.4349,45.8311],[5.3538,45.8833],[5.3092,45.8549],[5.2669,45.7894],[5.1915,45.7717],[5.1604,45.8023],[5.1011,45.8134],[5.0945,45.7395],[5.1311,45.7077],[5.0351,45.6372],[4.972,45.6127],[4.9015,45.6063],[4.8087,45.5723],[4.8685,45.5234],[4.7569,45.4557],[4.756,45.3657],[4.8005,45.2984],[4.8802,45.2975],[4.9892,45.344],[5.0543,45.3191],[5.1214,45.2483],[5.1765,45.2484],[5.1649,45.1985],[5.1886,45.1713],[5.1794,45.0833],[5.2919,45.0639],[5.3884,45.0361],[5.4498,45.0708],[5.4836,45.0228],[5.4837,44.9223],[5.4642,44.7924],[5.6271,44.7525],[5.759,44.6961],[5.8015,44.7068],[5.8504,44.7507],[5.9152,44.7547],[5.9495,44.8045],[6.0302,44.8381],[6.0563,44.8159],[6.1362,44.8641],[6.2505,44.8527],[6.3029,44.8733],[6.3554,44.8548],[6.3588,44.9413],[6.329,44.9473],[6.3182,45.0039],[6.2518,44.9967],[6.2039,45.0125],[6.2294,45.1087],[6.2606,45.1268],[6.1892,45.1637],[6.1257,45.2443],[6.1319,45.2883],[6.1844,45.318],[6.1775,45.3932],[6.1213,45.4389],[6.0498,45.4379],[5.9662,45.4923],[5.8797,45.4068],[5.7821,45.4407],[5.7364,45.4725],[5.6237,45.6133]]]},"properties":{"code":"38","nom":"Isère"}},
{"type":"Feature","geometry":{"type":"Polygon","coordinates":[[[4.048,49.4056],[4.0355,49.3599],[3.9613,49.3773],[3.9244,49.4062],[3.8475,49.3646],[3.647,49.3152],[3.7044,49.1814],[3.6223,49.1511],[3.6,49.1207],[3.6463,49.0406],[3.6016,48.9441],[3.5286,48.9121],[3.4852,48.8519],[3.4358,48.7536],[3.477,48.6994],[3.4604,48.653],[3.5556,48.6203],[3.634,48.5413],[3.7309,48.5375],[3.8227,48.5161],[3.9492,48.6034],[4.0017,48.6639],[4.0559,48.6671],[4.0803,48.7011],[4.1664,48.7075],[4.3256,48.7003],[4.3159,48.6156],[4.4031,48.5613],[4.5454,48.5253],[4.614,48.5538],[4.6702,48.5319],[4.7235,48.5415],[4.7992,48.5298],[4.7692,48.5887],[4.8493,48.6236],[4.842,48.6497],[4.9113,48.6887],[4.9884,48.6844],[4.9901,48.7418],[4.8888,48.8172],[4.9357,48.8406],[4.913,48.8721],[4.9362,48.9221],[5.0301,48.9569],[5.0363,49.0243],[5.0077,49.035],[4.9921,49.1149],[4.9398,49.1851],[4.9934,49.2096],[4.951,49.2369],[4.8942,49.2591],[4.8269,49.2358],[4.6861,49.2568],[4.6251,49.2357],[4.5759,49.2966],[4.4226,49.2806],[4.3068,49.3278],[4.2483,49.3823],[4.1432,49.4042],[4.048,49.4056]]]},"properties":{"code":"51","nom":"Marne"}},
{"type":"Feature","geometry":{"type":"Polygon","coordinates":[[[4.6702,48.5319],[4.6535,48.4706],[4.7161,48.3949],[4.8097,48.3474],[4.8589,48.2636],[4.8501,48.1418],[4.8193,48.1032],[4.7306,48.1182],[4.6888,48.0731],[4.7042,48.0202],[4.7891,48.0078],[4.7865,47.9642],[4.852,47.9562],[4.9541,47.8668],[4.9824,47.8004],[4.9496,47.765],[4.9791,47.6878],[5.1089,47.6497],[5.1736,47.6526],[5.2392,47.6161],[5.3741,47.6045],[5.4063,47.6734],[5.4826,47.6846],[5.5967,47.6717],[5.6901,47.6848],[5.7092,47.7448],[5.6766,47.7792],[5.6903,47.8186],[5.7461,47.8236],[5.7612,47.8593],[5.8214,47.8682],[5.8847,47.926],[5.85,47.9628],[5.7873,47.9526],[5.7777,48.0314],[5.6968,48.0772],[5.6305,48.084],[5.6843,48.145],[5.7108,48.2199],[5.6409,48.2424],[5.4822,48.3562],[5.4182,48.3398],[5.4087,48.3831],[5.4701,48.4209],[5.3495,48.482],[5.2084,48.5386],[5.1184,48.5955],[5.0709,48.5957],[5.0059,48.634],[4.9884,48.6844],[4.9113,48.6887],[4.842,48.6497],[4.8493,48.6236],[4.7692,48.5887],[4.7992,48.5298],[4.7235,48.5415],[4.6702,48.5319]]]},"properties":{"code":"52","nom":"Haute-Marne"}},
{"type":"Feature","geometry":{"type":"Polygon","coordinates":[[[7.6353,49.0542],[7.6,49.0833],[7.539,49.0921],[7.44,49.1808],[7.3651,49.1718],[7.2986,49.1175],[7.2478,49.128],[7.0661,49.1146],[7.0107,49.1881],[6.9354,49.2222],[6.8354,49.2113],[6.8345,49.1515],[6.7385,49.1637],[6.6881,49.2244],[6.6692,49.2806],[6.5658,49.3474],[6.5871,49.3849],[6.5522,49.4233],[6.4301,49.4764],[6.392,49.4645],[6.2966,49.4801],[6.2564,49.51],[6.1569,49.5044],[6.1235,49.4738],[5.989,49.4533],[5.9718,49.4913],[5.8934,49.4969],[5.9426,49.4529],[5.9285,49.3755],[6.0294,49.2305],[5.9876,49.2096],[6.0261,49.1651],[5.9316,49.1091],[5.9354,49.0719],[6.045,49.0104],[6.0434,48.9775],[6.1169,48.9678],[6.1322,48.9347],[6.272,48.9331],[6.3389,48.8341],[6.355,48.7817],[6.4335,48.789],[6.4536,48.7659],[6.5541,48.7541],[6.599,48.7157],[6.6584,48.708],[6.6923,48.6728],[6.7547,48.6694],[6.8441,48.626],[6.9829,48.6119],[7.0794,48.5364],[7.1679,48.5276],[7.2563,48.5887],[7.2831,48.6381],[7.2425,48.6915],[7.3119,48.7673],[7.1494,48.8447],[7.1268,48.8011],[7.0545,48.8137],[7.0453,48.8715],[6.9646,48.9045],[6.9892,48.9599],[7.0549,49.0306],[7.1077,49.0441],[7.1742,49.0064],[7.2931,48.9734],[7.3268,48.9434],[7.4469,48.9658],[7.5383,48.933],[7.5784,48.9574],[7.6353,49.0542]]]},"properties":{"code":"57","nom":"Moselle"}},
{"type":"Feature","geometry":{"type":"Polygon","coordinates":[[[-0.0968,43.5824],[-0.0401,43.5126],[-0.034,43.4749],[-0.069,43.4373],[-0.0428,43.4104],[0.0096,43.4221],[-0.0461,43.3009],[-0.017,43.2704],[-0.0725,43.2244],[-0.0679,43.1771],[-0.1177,43.1803],[-0.1461,43.1282],[-0.191,43.1112],[-0.2239,43.0337],[-0.2915,42.9878],[-0.2816,42.9336],[-0.3271,42.9158],[-0.3134,42.8494],[-0.146,42.7685],[-0.1061,42.7208],[-0.0106,42.6844],[0.1757,42.7365],[0.2599,42.7158],[0.2928,42.6749],[0.3596,42.7234],[0.4293,42.6907],[0.4778,42.7],[0.4551,42.7281],[0.4589,42.8281],[0.4773,42.8781],[0.5759,42.8708],[0.6274,43.0001],[0.6082,43.0336],[0.5323,43.0939],[0.442,43.1313],[0.5519,43.2091],[0.5516,43.2361],[0.6163,43.289],[0.6068,43.3109],[0.5474,43.3293],[0.443,43.3279],[0.3318,43.3432],[0.2773,43.3858],[0.182,43.3712],[0.138,43.4329],[0.1121,43.5174],[0.0561,43.5188],[-0.0019,43.5655],[-0.0158,43.6047],[-0.074,43.6063],[-0.0968,43.5824]]]},"properties":{"code":"65","nom":"Hautes-Pyrénées"}},
{"type":"Feature","geometry":{"type":"Polygon","coordinates":[[[2.166,42.6639],[2.0005,42.6616],[1.9718,42.6169],[1.9073,42.6086],[1.8745,42.5814],[1.7861,42.5736],[1.7499,42.5636],[1.7299,42.4953],[1.8346,42.4818],[1.9583,42.424],[1.9859,42.362],[2.0836,42.3627],[2.1563,42.4234],[2.2011,42.4163],[2.2578,42.4384],[2.4355,42.3889],[2.483,42.3396],[2.54,42.3338],[2.5778,42.3579],[2.6718,42.3412],[2.675,42.405],[2.7532,42.4254],[2.7992,42.4186],[2.8414,42.4585],[2.9245,42.4584],[3.0408,42.4731],[3.0854,42.4255],[3.1732,42.4349],[3.1336,42.5129],[3.0496,42.5501],[3.0354,42.6783],[3.0435,42.8381],[2.9171,42.8849],[2.8653,42.9183],[2.7891,42.896],[2.74,42.8376],[2.6976,42.8304],[2.509,42.8498],[2.4525,42.8369],[2.3822,42.8485],[2.3271,42.8374],[2.3575,42.7341],[2.322,42.7078],[2.166,42.6639]]]},"properties":{"code":"66","nom":"Pyrénées-Orientales"}},
{"type":"Feature","geometry":{"type":"Polygon","coordinates":[[[6.8025,45.7784],[6.7555,45.7664],[6.7119,45.7229],[6.6612,45.7989],[6.6017,45.7954],[6.5522,45.8269],[6.5091,45.9086],[6.4706,45.8847],[6.4237,45.8024],[6.3838,45.7781],[6.3306,45.6955],[6.2397,45.6854],[6.1897,45.7042],[6.1662,45.7557],[6.0429,45.7391],[5.9132,45.8041],[5.8734,45.8381],[5.8621,45.9324],[5.8312,45.9385],[5.7869,45.823],[5.7762,45.7292],[5.7041,45.7109],[5.6892,45.6485],[5.6237,45.6133],[5.7364,45.4725],[5.7821,45.4407],[5.8797,45.4068],[5.9662,45.4923],[6.0498,45.4379],[6.1213,45.4389],[6.1775,45.3932],[6.1844,45.318],[6.1319,45.2883],[6.1257,45.2443],[6.1892,45.1637],[6.2606,45.1268],[6.3629,45.1045],[6.3939,45.0618],[6.4862,45.0561],[6.4813,45.0941],[6.63,45.1093],[6.6801,45.1401],[6.7393,45.1368],[6.7679,45.1597],[6.8499,45.1272],[6.8916,45.167],[6.9542,45.1796],[6.9688,45.2081],[7.1376,45.2557],[7.1107,45.3265],[7.1617,45.3625],[7.1843,45.4075],[7.1135,45.4342],[7.0998,45.4694],[7.0003,45.5044],[7.0007,45.6399],[6.9346,45.6471],[6.8291,45.7028],[6.8025,45.7784]]]},"properties":{"code":"73","nom":"Savoie"}},
{"type":"Feature","geometry":{"type":"Polygon","coordinates":[[[6.8025,45.7784],[6.8181,45.835],[6.9396,45.8467],[6.9917,45.8682],[7.0439,45.9221],[7.0183,45.9842],[6.9515,46.05],[6.8915,46.0845],[6.8984,46.1226],[6.8147,46.1297],[6.7904,46.1547],[6.8037,46.2043],[6.8645,46.283],[6.7826,46.3369],[6.7957,46.3931],[6.7229,46.4076],[6.5452,46.3947],[6.39,46.3402],[6.327,46.3711],[6.2799,46.3511],[6.2378,46.2773],[6.2957,46.2261],[6.2321,46.2055],[6.1751,46.1582],[5.9561,46.1321],[5.8323,46.106],[5.8076,46.0639],[5.8096,45.9898],[5.8312,45.9385],[5.8621,45.9324],[5.8734,45.8381],[5.9132,45.8041],[6.0429,45.7391],[6.1662,45.7557],[6.1897,45.7042],[6.2397,45.6854],[6.3306,45.6955],[6.3838,45.7781],[6.4237,45.8024],[6.4706,45.8847],[6.5091,45.9086],[6.5522,45.8269],[6.6017,45.7954],[6.6612,45.7989],[6.7119,45.7229],[6.7555,45.7664],[6.8025,45.7784]]]},"properties":{"code":"74","nom":"Haute-Savoie"}},
{"type":"Feature","geometry":{"type":"Polygon","coordinates":[[[2.5717,48.692],[2.5336,48.6573],[2.5438,48.6039],[2.4995,48.5252],[2.5048,48.4394],[2.5337,48.4113],[2.4298,48.362],[2.4027,48.3207],[2.4238,48.2603],[2.5062,48.2385],[2.5381,48.1407],[2.7065,48.1248],[2.7989,48.1683],[2.9363,48.1634],[3.0052,48.2077],[3.0436,48.272],[3.0273,48.3004],[3.0495,48.3601],[3.1677,48.3719],[3.2544,48.365],[3.3652,48.3723],[3.4148,48.3903],[3.392,48.4243],[3.4234,48.5336],[3.5039,48.6048],[3.5556,48.6203],[3.4604,48.653],[3.477,48.6994],[3.4358,48.7536],[3.4852,48.8519],[3.4032,48.8647],[3.3303,48.9087],[3.3048,48.9488],[3.1717,49.0141],[3.1652,49.0997],[3.0719,49.1176],[3.0085,49.0915],[2.735,49.0605],[2.6333,49.1084],[2.5905,49.0797],[2.5531,49.0098],[2.6026,48.9294],[2.5626,48.8889],[2.5923,48.8074],[2.6137,48.761],[2.5717,48.692]]]},"properties":{"code":"77","nom":"Seine-et-Marne"}},
{"type":"Feature","geometry":{"type":"MultiPolygon","coordinates":[[[[4.8881,44.3317],[4.9786,44.2975],[5.0134,44.3261],[5.0158,44.3928],[4.9704,44.4314],[4.9185,44.4078],[4.8881,44.3317]]],[[[5.4988,44.1157],[5.4358,44.1522],[5.3832,44.1553],[5.3845,44.201],[5.3037,44.206],[5.1549,44.2309],[5.1497,44.2821],[5.0765,44.2841],[5.0606,44.3081],[4.9355,44.2643],[4.8738,44.2593],[4.8141,44.2323],[4.8029,44.2966],[4.7623,44.3254],[4.6506,44.3298],[4.6492,44.2704],[4.7221,44.1874],[4.7075,44.1037],[4.788,44.0651],[4.8421,43.9865],[4.7391,43.9241],[4.8531,43.9114],[4.9663,43.8716],[5.0295,43.8278],[5.0515,43.7879],[5.188,43.7351],[5.23,43.7477],[5.3185,43.735],[5.4392,43.6811],[5.5315,43.659],[5.6069,43.6587],[5.7536,43.7246],[5.7573,43.7294],[5.6544,43.8251],[5.5782,43.8299],[5.5738,43.8665],[5.6071,43.9138],[5.5676,43.9426],[5.5121,43.946],[5.5437,44.0287],[5.5026,44.0634],[5.4988,44.1157]]]]},"properties":{"code":"84","nom":"Vaucluse"}},
{"type":"Feature","geometry":{"type":"Polygon","coordinates":[[[-0.1021,47.0648],[-0.0877,47.0231],[-0.009,46.9075],[-0.0203,46.8126],[0.0007,46.7162],[-0.0404,46.6637],[-0.0265,46.6289],[0.026,46.5947],[-0.0314,46.525],[-0.0171,46.4113],[0.0342,46.3735],[0.0376,46.3255],[0.0782,46.3049],[0.1376,46.3494],[0.1774,46.3281],[0.1288,46.2672],[0.1128,46.2109],[0.1551,46.1572],[0.2149,46.1388],[0.1974,46.0956],[0.2798,46.061],[0.4027,46.0627],[0.5064,46.1319],[0.54,46.0856],[0.6874,46.0973],[0.7469,46.1386],[0.8234,46.1286],[0.7963,46.211],[0.9073,46.2853],[1.0059,46.281],[1.027,46.343],[1.1298,46.3605],[1.1773,46.3839],[1.2127,46.4322],[1.1516,46.4492],[1.1459,46.5064],[1.0876,46.5382],[1.0206,46.5371],[1.0148,46.5678],[0.942,46.5808],[0.8943,46.6257],[0.9247,46.6928],[0.8675,46.7482],[0.8119,46.7945],[0.7903,46.8524],[0.7043,46.9033],[0.6926,46.9743],[0.567,47.0023],[0.5983,46.9568],[0.5061,46.9592],[0.4387,46.9296],[0.3007,46.9738],[0.2982,47.0539],[0.1742,47.0713],[0.1361,47.1216],[0.0764,47.1239],[0.0538,47.1637],[-0.0107,47.1575],[-0.0442,47.0932],[-0.1021,47.0648]]]},"properties":{"code":"86","nom":"Vienne"}},
{"type":"Feature","geometry":{"type":"Polygon","coordinates":[[[2.3319,48.817],[2.3207,48.7488],[2.3707,48.7202],[2.5035,48.7352],[2.5717,48.692],[2.6137,48.761],[2.5923,48.8074],[2.4956,48.8608],[2.4163,48.8492],[2.3319,48.817]]]},"properties":{"code":"94","nom":"Val-de-Marne"}},
{"type":"Feature","geometry":{"type":"Polygon","coordinates":[[[4.7802,46.1767],[4.7974,46.1407],[4.7503,46.0941],[4.7395,46.0472],[4.7546,45.9736],[4.7291,45.9491],[4.8645,45.9046],[4.9215,45.8327],[4.9238,45.804],[5.1011,45.8134],[5.1604,45.8023],[5.1915,45.7717],[5.2669,45.7894],[5.3092,45.8549],[5.3538,45.8833],[5.4349,45.8311],[5.4226,45.8071],[5.5455,45.7136],[5.6237,45.6133],[5.6892,45.6485],[5.7041,45.7109],[5.7762,45.7292],[5.7869,45.823],[5.8312,45.9385],[5.8096,45.9898],[5.8076,46.0639],[5.8323,46.106],[5.9561,46.1321],[5.9922,46.1866],[5.9718,46.2115],[6.0331,46.238],[6.1242,46.251],[6.1026,46.2851],[6.1697,46.3679],[6.064,46.4162],[5.9868,46.3649],[5.9089,46.284],[5.8498,46.2621],[5.7252,46.2607],[5.7147,46.3088],[5.6493,46.3395],[5.542,46.2702],[5.4731,46.2651],[5.4378,46.3151],[5.3735,46.3522],[5.377,46.3814],[5.3077,46.4168],[5.3106,46.4468],[5.2151,46.4684],[5.2011,46.5082],[5.142,46.5084],[5.0524,46.4849],[5.011,46.5103],[4.94,46.5172],[4.8918,46.4399],[4.8882,46.403],[4.811,46.2599],[4.7802,46.1767]]]},"properties":{"code":"01","nom":"Ain"}},
{"type":"Feature","geometry":{"type":"Polygon","coordinates":[[[2.9817,44.6447],[2.9233,44.7286],[2.9345,44.7792],[2.8796,44.803],[2.8497,44.8715],[2.802,44.8736],[2.7383,44.9412],[2.7064,44.9072],[2.6027,44.8432],[2.5994,44.7928],[2.5627,44.7758],[2.5561,44.7213],[2.4989,44.687],[2.4832,44.6503],[2.435,44.6389],[2.3268,44.6697],[2.2084,44.6438],[2.2075,44.6155],[2.1538,44.5719],[2.0574,44.5829],[1.9886,44.5512],[1.9315,44.5064],[1.8396,44.4759],[1.871,44.3977],[1.9068,44.3649],[1.8821,44.3401],[1.8596,44.3203],[1.9014,44.2791],[1.9704,44.2764],[1.9022,44.2043],[1.9767,44.1799],[1.9902,44.1494],[2.1061,44.1944],[2.1525,44.1977],[2.3892,44.0935],[2.4102,44.0559],[2.4599,44.0514],[2.5229,43.9813],[2.4993,43.9506],[2.555,43.9214],[2.5767,43.8817],[2.5642,43.8413],[2.6813,43.744],[2.7428,43.729],[2.8137,43.7617],[2.9211,43.7361],[2.9355,43.6947],[2.9854,43.7085],[3.0607,43.6931],[3.0494,43.8038],[3.0871,43.8356],[3.1292,43.8169],[3.2031,43.8139],[3.2751,43.8984],[3.3584,43.9138],[3.356,43.9462],[3.4055,43.9703],[3.4508,44.0208],[3.3289,44.079],[3.3361,44.1587],[3.3736,44.1708],[3.3578,44.1979],[3.2299,44.2263],[3.1252,44.2845],[3.1543,44.3084],[3.1197,44.3834],[3.1357,44.4549],[3.0685,44.5035],[3.0836,44.559],[2.9817,44.6447]]]},"properties":{"code":"12","nom":"Aveyron"}},
{"type":"Feature","geometry":{"type":"Polygon","coordinates":[[[4.7391,43.9241],[4.6419,43.8675],[4.6548,43.8064],[4.593,43.6875],[4.5398,43.7073],[4.4872,43.6992],[4.427,43.6207],[4.4094,43.5611],[4.3536,43.5474],[4.2381,43.4976],[4.2303,43.4602],[4.382,43.4523],[4.4653,43.4572],[4.5549,43.4462],[4.5881,43.4227],[4.5628,43.3721],[4.6618,43.3464],[4.7596,43.3499],[4.855,43.3326],[4.8668,43.4047],[4.9314,43.4332],[4.9677,43.4261],[5.041,43.3273],[5.2406,43.3317],[5.311,43.3609],[5.3621,43.322],[5.3457,43.2824],[5.3725,43.2451],[5.3636,43.2071],[5.4462,43.2102],[5.5003,43.1968],[5.5369,43.2145],[5.6009,43.1625],[5.6719,43.1793],[5.6839,43.2361],[5.7609,43.2673],[5.6828,43.3992],[5.7519,43.4343],[5.6988,43.4822],[5.7246,43.5509],[5.6821,43.6137],[5.7002,43.6417],[5.7991,43.6605],[5.8132,43.689],[5.7536,43.7246],[5.6069,43.6587],[5.5315,43.659],[5.4392,43.6811],[5.3185,43.735],[5.23,43.7477],[5.188,43.7351],[5.0515,43.7879],[5.0295,43.8278],[4.9663,43.8716],[4.8531,43.9114],[4.7391,43.9241]],[[5.0178,43.4693],[5.0155,43.5297],[5.1087,43.5255],[5.1497,43.457],[5.2028,43.4912],[5.2301,43.4651],[5.1373,43.4002],[5.0704,43.4002],[5.0519,43.4636],[5.0178,43.4693]]]},"properties":{"code":"13","nom":"Bouches-du-Rhône"}},
{"type":"Feature","geometry":{"type":"Polygon","coordinates":[[[-0.1029,45.9697],[-0.1317,45.911],[-0.1154,45.8707],[-0.1531,45.7957],[-0.2217,45.7757],[-0.2731,45.8066],[-0.3213,45.7845],[-0.4488,45.7659],[-0.4158,45.7417],[-0.4089,45.6562],[-0.3759,45.6089],[-0.2967,45.5645],[-0.2462,45.4916],[-0.2674,45.4557],[-0.2498,45.4087],[-0.2809,45.3599],[-0.2838,45.3099],[-0.2267,45.3214],[-0.1088,45.289],[-0.1154,45.2481],[-0.0442,45.2479],[0.0058,45.2214],[0.0043,45.1916],[0.0534,45.2269],[0.1277,45.2091],[0.2666,45.2977],[0.2493,45.363],[0.2706,45.4204],[0.3079,45.4609],[0.3565,45.4655],[0.4963,45.5445],[0.4996,45.6173],[0.6007,45.6721],[0.6297,45.7146],[0.7149,45.7631],[0.7164,45.8056],[0.7822,45.8211],[0.8629,45.9198],[0.9426,45.9574],[0.9256,46.0105],[0.867,46.0184],[0.8179,46.0479],[0.8234,46.1286],[0.7469,46.1386],[0.6874,46.0973],[0.54,46.0856],[0.5064,46.1319],[0.4027,46.0627],[0.2798,46.061],[0.1974,46.0956],[0.073,46.0939],[0.0193,46.0528],[-0.032,46.0559],[-0.0414,45.9935],[-0.1029,45.9697]]]},"properties":{"code":"16","nom":"Charente"}},
{"type":"Feature","geometry":{"type":"Polygon","coordinates":[[[2.2392,47.621],[2.128,47.5847],[2.1313,47.5503],[2.1956,47.5486],[2.2382,47.4723],[2.1017,47.3868],[2.139,47.2855],[1.997,47.2654],[1.9408,47.2901],[1.9041,47.2157],[1.8391,47.2193],[1.8421,47.178],[1.7746,47.1308],[1.8827,47.102],[1.9664,47.1254],[2.0484,47.106],[2.0515,47.04],[2.0934,47.0157],[2.0707,46.934],[2.1262,46.8799],[2.0488,46.8295],[2.1154,46.7744],[2.0658,46.7425],[2.1407,46.6956],[2.1856,46.6029],[2.1587,46.5573],[2.2044,46.4844],[2.1517,46.458],[2.1678,46.4241],[2.281,46.4204],[2.2858,46.4535],[2.352,46.5122],[2.4829,46.5327],[2.5367,46.5197],[2.615,46.5533],[2.5966,46.6372],[2.705,46.7394],[2.7745,46.7189],[2.8276,46.7353],[2.9599,46.8039],[3.0321,46.7949],[3.0681,46.8777],[3.0503,46.9106],[3.0793,46.9551],[3.0757,47.0191],[3.0232,47.0626],[3.0281,47.1291],[2.9817,47.222],[2.9834,47.2598],[2.8735,47.3484],[2.9289,47.4446],[2.8746,47.5204],[2.8065,47.4945],[2.768,47.5235],[2.7194,47.4922],[2.6585,47.4879],[2.5999,47.5537],[2.5411,47.5741],[2.4914,47.5683],[2.4373,47.6098],[2.373,47.5855],[2.2862,47.629],[2.2392,47.621]]]},"properties":{"code":"18","nom":"Cher"}},
{"type":"Feature","geometry":{"type":"Polygon","coordinates":[[[9.4023,41.8587],[9.4126,41.9525],[9.55,42.1042],[9.5588,42.2853],[9.5327,42.38],[9.5434,42.4285],[9.5332,42.5459],[9.4492,42.6622],[9.4464,42.6861],[9.4924,42.8051],[9.4731,42.8741],[9.4636,42.9864],[9.4218,43.0117],[9.3409,42.9945],[9.3538,42.9162],[9.311,42.8347],[9.3426,42.7948],[9.3445,42.7378],[9.2933,42.6743],[9.2544,42.7185],[9.1669,42.7366],[9.0858,42.7146],[9.0207,42.6443],[8.8865,42.629],[8.8089,42.5991],[8.8041,42.5699],[8.6665,42.5152],[8.6748,42.4762],[8.6552,42.4157],[8.6084,42.4168],[8.5734,42.3814],[8.6408,42.3734],[8.8196,42.3176],[8.9048,42.2539],[9.0457,42.2069],[9.0722,42.1302],[9.1197,42.1078],[9.1608,42.026],[9.2211,42.0276],[9.2275,41.8556],[9.3292,41.8368],[9.4023,41.8587]]]},"properties":{"code":"2B","nom":"Haute-Corse"}},
{"type":"Feature","geometry":{"type":"Polygon","coordinates":[[[4.2934,47.9257],[4.261,47.8439],[4.3244,47.8472],[4.3325,47.7565],[4.2582,47.7274],[4.2684,47.6814],[4.2124,47.628],[4.1751,47.5533],[4.1155,47.515],[4.1194,47.4436],[4.0661,47.4073],[4.1061,47.3393],[4.1355,47.2374],[4.178,47.2503],[4.2307,47.1989],[4.2098,47.1554],[4.2596,47.1143],[4.4055,47.0816],[4.4063,47.05],[4.4937,47.0284],[4.6232,46.9408],[4.7281,46.9194],[5.0493,46.9816],[5.1063,46.9558],[5.2552,46.9799],[5.3101,47.018],[5.2829,47.0452],[5.3222,47.073],[5.386,47.082],[5.44,47.1444],[5.4766,47.216],[5.4883,47.2893],[5.5185,47.3042],[5.4928,47.3321],[5.4969,47.3901],[5.4514,47.3841],[5.3992,47.499],[5.4471,47.4963],[5.4969,47.5441],[5.4775,47.6087],[5.4259,47.6321],[5.3741,47.6045],[5.2392,47.6161],[5.1736,47.6526],[5.1089,47.6497],[4.9791,47.6878],[4.9496,47.765],[4.9824,47.8004],[4.9541,47.8668],[4.852,47.9562],[4.7865,47.9642],[4.7891,48.0078],[4.7042,48.0202],[4.5827,48.0295],[4.5358,48.0012],[4.56,47.9714],[4.449,47.9572],[4.4144,47.9682],[4.309,47.9612],[4.2934,47.9257]]]},"properties":{"code":"21","nom":"Côte-d'Or"}},
{"type":"Feature","geometry":{"type":"Polygon","coordinates":[[[4.8005,45.2984],[4.8125,45.1645],[4.8377,45.0048],[4.8866,44.9367],[4.8225,44.8171],[4.7662,44.7786],[4.7791,44.6547],[4.7103,44.5815],[4.6936,44.5422],[4.6987,44.4523],[4.6674,44.4307],[4.6506,44.3298],[4.7623,44.3254],[4.8029,44.2966],[4.8141,44.2323],[4.8738,44.2593],[4.9355,44.2643],[5.0606,44.3081],[5.0765,44.2841],[5.1497,44.2821],[5.1549,44.2309],[5.3037,44.206],[5.3845,44.201],[5.3832,44.1553],[5.4358,44.1522],[5.4988,44.1157],[5.544,44.1364],[5.5762,44.188],[5.6396,44.1676],[5.676,44.1914],[5.6866,44.2669],[5.6468,44.2671],[5.6316,44.3283],[5.5135,44.3475],[5.4931,44.3372],[5.4185,44.4249],[5.5133,44.4911],[5.6036,44.4655],[5.6308,44.5316],[5.5973,44.5433],[5.6496,44.6179],[5.6417,44.6511],[5.726,44.6394],[5.7906,44.6533],[5.8015,44.7068],[5.759,44.6961],[5.6271,44.7525],[5.4642,44.7924],[5.4837,44.9223],[5.4836,45.0228],[5.4498,45.0708],[5.3884,45.0361],[5.2919,45.0639],[5.1794,45.0833],[5.1886,45.1713],[5.1649,45.1985],[5.1765,45.2484],[5.1214,45.2483],[5.0543,45.3191],[4.9892,45.344],[4.8802,45.2975],[4.8005,45.2984]],[[4.8881,44.3317],[4.9185,44.4078],[4.9704,44.4314],[5.0158,44.3928],[5.0134,44.3261],[4.9786,44.2975],[4.8881,44.3317]]]},"properties":{"code":"26","nom":"Drôme"}},
{"type":"Feature","geometry":{"type":"Polygon","coordinates":[[[0.954,43.7874],[1.0877,43.645],[1.1475,43.6342],[1.2013,43.5948],[1.0971,43.5332],[1.0182,43.4733],[0.9781,43.3627],[0.9172,43.4063],[0.8205,43.417],[0.7176,43.3766],[0.6559,43.3172],[0.6068,43.3109],[0.6163,43.289],[0.5516,43.2361],[0.5519,43.2091],[0.442,43.1313],[0.5323,43.0939],[0.6082,43.0336],[0.6274,43.0001],[0.5759,42.8708],[0.4773,42.8781],[0.4589,42.8281],[0.4551,42.7281],[0.4778,42.7],[0.6076,42.6991],[0.6823,42.709],[0.6445,42.7831],[0.659,42.8385],[0.7084,42.8614],[0.7676,42.839],[0.8583,42.8257],[0.8324,42.92],[0.8749,42.9578],[0.9791,42.9744],[1.007,43.0076],[0.9852,43.0671],[1.0388,43.1005],[1.0589,43.1418],[1.1241,43.1569],[1.2087,43.118],[1.2236,43.0861],[1.2914,43.1241],[1.219,43.1532],[1.2275,43.1839],[1.3146,43.19],[1.3744,43.2137],[1.2933,43.2853],[1.3436,43.3156],[1.4254,43.2566],[1.4637,43.2106],[1.5475,43.2757],[1.6372,43.2551],[1.6884,43.2736],[1.7477,43.3437],[1.8134,43.3414],[1.8041,43.3917],[1.8587,43.4438],[1.9101,43.4041],[2.0291,43.4369],[2.0181,43.4703],[1.8826,43.5209],[1.8248,43.5808],[1.7795,43.587],[1.6878,43.6307],[1.7309,43.6578],[1.7064,43.7162],[1.6604,43.7418],[1.6448,43.8003],[1.591,43.8155],[1.5555,43.8683],[1.5556,43.9183],[1.4479,43.8736],[1.3568,43.8842],[1.3609,43.8211],[1.2192,43.7708],[1.1446,43.8223],[0.954,43.7874]]]},"properties":{"code":"31","nom":"Haute-Garonne"}},
{"type":"Feature","geometry":{"type":"Polygon","coordinates":[[[0.076,43.9831],[0.0553,43.958],[0.0766,43.9165],[0.0326,43.9002],[-0.0154,43.9342],[-0.0736,43.945],[-0.1791,43.9379],[-0.2339,43.8911],[-0.191,43.8752],[-0.1925,43.8102],[-0.2271,43.8083],[-0.1941,43.737],[-0.2326,43.7141],[-0.2428,43.585],[-0.1764,43.5964],[-0.0968,43.5824],[-0.074,43.6063],[-0.0158,43.6047],[-0.0019,43.5655],[0.0561,43.5188],[0.1121,43.5174],[0.138,43.4329],[0.182,43.3712],[0.2773,43.3858],[0.3318,43.3432],[0.443,43.3279],[0.5474,43.3293],[0.6068,43.3109],[0.6559,43.3172],[0.7176,43.3766],[0.8205,43.417],[0.9172,43.4063],[0.9781,43.3627],[1.0182,43.4733],[1.0971,43.5332],[1.2013,43.5948],[1.1475,43.6342],[1.0877,43.645],[0.954,43.7874],[0.9062,43.7843],[0.8994,43.8647],[0.8629,43.9233],[0.7601,43.9422],[0.8604,44.0408],[0.7758,44.0359],[0.7419,44.0652],[0.6666,44.0251],[0.598,44.0782],[0.539,44.0537],[0.4595,44.0552],[0.4424,44.0288],[0.3576,44.0164],[0.3041,43.9931],[0.1896,44.0146],[0.1668,43.9968],[0.076,43.9831]]]},"properties":{"code":"32","nom":"Gers"}},
{"type":"Feature","geometry":{"type":"Polygon","coordinates":[[[3.3584,43.9138],[3.2751,43.8984],[3.2031,43.8139],[3.1292,43.8169],[3.0871,43.8356],[3.0494,43.8038],[3.0607,43.6931],[2.9854,43.7085],[2.9355,43.6947],[2.916,43.66],[2.8159,43.6401],[2.7545,43.6141],[2.7112,43.6456],[2.6433,43.6501],[2.6156,43.5666],[2.6586,43.5258],[2.6595,43.4802],[2.6061,43.4311],[2.5658,43.423],[2.54,43.3462],[2.6016,43.2987],[2.6591,43.293],[2.7722,43.2578],[2.8328,43.3224],[3.0044,43.3201],[3.0047,43.2885],[3.1472,43.247],[3.201,43.2492],[3.2406,43.2128],[3.3439,43.2704],[3.4303,43.2902],[3.511,43.2733],[3.6026,43.3554],[3.6622,43.3923],[3.7967,43.441],[3.9071,43.5168],[4.0112,43.5524],[4.101,43.5544],[4.1502,43.5856],[4.1944,43.6543],[4.1448,43.7339],[4.002,43.8115],[3.9174,43.8856],[3.8308,43.8664],[3.8249,43.9193],[3.7873,43.9669],[3.727,43.969],[3.6236,43.917],[3.5754,43.8655],[3.5307,43.8556],[3.4245,43.9116],[3.3584,43.9138]]]},"properties":{"code":"34","nom":"Hérault"}},
{"type":"Feature","geometry":{"type":"Polygon","coordinates":[[[3.8974,45.3571],[3.8083,45.3916],[3.7723,45.3492],[3.6672,45.3762],[3.6258,45.3383],[3.5631,45.3949],[3.5013,45.4276],[3.4567,45.4003],[3.2907,45.4018],[3.1681,45.3523],[3.1035,45.3544],[3.118,45.2842],[3.2225,45.272],[3.288,45.1204],[3.3258,45.0951],[3.2972,45.0361],[3.3472,45.0142],[3.3613,44.9714],[3.4128,44.9448],[3.418,44.9008],[3.4758,44.8154],[3.5894,44.8322],[3.5943,44.8754],[3.6595,44.8699],[3.6664,44.8288],[3.7406,44.8387],[3.8625,44.7439],[3.937,44.7954],[4.0284,44.8341],[4.0396,44.8732],[4.1562,44.8733],[4.2159,44.9327],[4.2217,44.9613],[4.2898,44.9973],[4.3753,45.1048],[4.3766,45.1444],[4.4433,45.1408],[4.4804,45.1953],[4.4831,45.2364],[4.4186,45.2754],[4.3625,45.2644],[4.3665,45.337],[4.3082,45.371],[4.1779,45.3926],[4.0248,45.3429],[3.9796,45.3751],[3.8974,45.3571]]]},"properties":{"code":"43","nom":"Haute-Loire"}},
{"type":"Feature","geometry":{"type":"Polygon","coordinates":[[[-1.1486,47.0295],[-1.1155,47.0626],[-1.2312,47.11],[-1.2352,47.1388],[-1.1632,47.1778],[-1.1977,47.2506],[-1.2542,47.2499],[-1.3051,47.3032],[-1.2999,47.3376],[-1.1676,47.3659],[-1.0179,47.3651],[-0.9464,47.3865],[-0.9675,47.4928],[-1.1572,47.5101],[-1.1724,47.573],[-1.0459,47.5634],[-1.0069,47.5891],[-1.1382,47.6195],[-1.1749,47.6946],[-1.2546,47.7336],[-1.2459,47.7767],[-1.3529,47.7977],[-1.3904,47.8283],[-1.5281,47.7858],[-1.5934,47.776],[-1.6548,47.7126],[-1.7724,47.6985],[-1.864,47.707],[-1.9691,47.6884],[-2.0747,47.6517],[-2.097,47.6314],[-2.0869,47.6028],[-2.1073,47.5311],[-2.2443,47.4936],[-2.2991,47.5005],[-2.3129,47.4645],[-2.4585,47.4481],[-2.4727,47.4161],[-2.5341,47.383],[-2.5068,47.3414],[-2.5138,47.2984],[-2.4475,47.2618],[-2.3984,47.2814],[-2.3016,47.2364],[-2.1874,47.2806],[-2.1584,47.2091],[-2.1671,47.1662],[-2.2268,47.1309],[-2.0535,47.0941],[-1.9804,47.0289],[-1.9432,46.9947],[-1.831,46.932],[-1.7511,46.9296],[-1.6898,46.8905],[-1.5485,46.8601],[-1.5008,46.8839],[-1.5536,46.9815],[-1.5523,47.0183],[-1.4821,47.0379],[-1.4561,46.9263],[-1.373,46.9522],[-1.3786,47.0309],[-1.2946,47.0395],[-1.2712,47.0839],[-1.2028,47.0418],[-1.1486,47.0295]]]},"properties":{"code":"44","nom":"Loire-Atlantique"}},
{"type":"Feature","geometry":{"type":"Polygon","coordinates":[[[1.4483,45.0193],[1.4133,44.9994],[1.4419,44.8776],[1.3614,44.8408],[1.3641,44.8116],[1.2996,44.7969],[1.3228,44.7651],[1.2878,44.7148],[1.2246,44.6843],[1.1467,44.6703],[1.1538,44.6394],[1.0751,44.5773],[1.0132,44.5361],[1.009,44.48],[1.0641,44.3785],[1.1079,44.3274],[1.2171,44.2769],[1.2814,44.2358],[1.3804,44.2249],[1.4536,44.2541],[1.5205,44.2633],[1.5691,44.2984],[1.6516,44.2868],[1.6995,44.3138],[1.806,44.3366],[1.8821,44.3401],[1.9068,44.3649],[1.871,44.3977],[1.8396,44.4759],[1.9315,44.5064],[1.9886,44.5512],[2.0574,44.5829],[2.1538,44.5719],[2.2075,44.6155],[2.1694,44.6381],[2.1535,44.7531],[2.1716,44.79],[2.0942,44.872],[2.0629,44.9765],[1.9082,44.9784],[1.8239,44.9277],[1.7749,44.9237],[1.7506,44.955],[1.651,45.025],[1.5357,45.0463],[1.4483,45.0193]]]},"properties":{"code":"46","nom":"Lot"}},
{"type":"Feature","geometry":{"type":"Polygon","coordinates":[[[-1.2459,47.7767],[-1.2546,47.7336],[-1.1749,47.6946],[-1.1382,47.6195],[-1.0069,47.5891],[-1.0459,47.5634],[-1.1724,47.573],[-1.1572,47.5101],[-0.9675,47.4928],[-0.9464,47.3865],[-1.0179,47.3651],[-1.1676,47.3659],[-1.2999,47.3376],[-1.3051,47.3032],[-1.2542,47.2499],[-1.1977,47.2506],[-1.1632,47.1778],[-1.2352,47.1388],[-1.2312,47.11],[-1.1155,47.0626],[-1.1486,47.0295],[-1.0554,47.0057],[-0.9335,47.0089],[-0.892,46.9758],[-0.7739,47.0042],[-0.7131,46.9861],[-0.62,46.9933],[-0.5655,47.0194],[-0.5595,47.0619],[-0.4953,47.0824],[-0.4008,47.0708],[-0.2415,47.1057],[-0.1848,47.1083],[-0.1284,47.0544],[-0.1021,47.0648],[-0.0442,47.0932],[-0.0107,47.1575],[0.0538,47.1637],[0.079,47.2828],[0.1853,47.4247],[0.1809,47.4534],[0.2201,47.502],[0.2015,47.5443],[0.23,47.6084],[0.1516,47.5815],[0.1157,47.6057],[0.0517,47.6065],[-0.0045,47.6477],[-0.0718,47.658],[-0.135,47.6325],[-0.1932,47.6479],[-0.2331,47.7076],[-0.3341,47.7212],[-0.3817,47.7606],[-0.4604,47.7651],[-0.6108,47.7357],[-0.7417,47.7381],[-0.8161,47.7712],[-0.8393,47.7523],[-0.952,47.7965],[-0.9787,47.762],[-1.0999,47.782],[-1.1426,47.7744],[-1.2382,47.81],[-1.2459,47.7767]]]},"properties":{"code":"49","nom":"Maine-et-Loire"}},
{"type":"Feature","geometry":{"type":"Polygon","coordinates":[[[-1.1196,49.3556],[-1.1639,49.3667],[-1.1825,49.424],[-1.3064,49.5389],[-1.3042,49.5737],[-1.2296,49.6247],[-1.2878,49.6926],[-1.4212,49.7037],[-1.5416,49.6541],[-1.6784,49.6612],[-1.9422,49.7256],[-1.9462,49.6743],[-1.8603,49.6502],[-1.841,49.5717],[-1.8857,49.5404],[-1.8268,49.4529],[-1.8198,49.3905],[-1.7112,49.3251],[-1.5988,49.1692],[-1.6094,49.0793],[-1.5938,49.0225],[-1.5607,49.0015],[-1.5643,48.9216],[-1.5941,48.8347],[-1.5744,48.7519],[-1.505,48.6874],[-1.3932,48.6505],[-1.4492,48.6234],[-1.5711,48.6264],[-1.5189,48.5666],[-1.5333,48.548],[-1.4899,48.4894],[-1.3772,48.4583],[-1.2722,48.5339],[-1.2066,48.5422],[-1.1471,48.5175],[-1.0702,48.5085],[-1.004,48.4892],[-0.9564,48.5166],[-0.8604,48.5015],[-0.7742,48.5627],[-0.7526,48.6176],[-0.7734,48.6575],[-0.7373,48.6867],[-0.799,48.7102],[-0.8409,48.7522],[-0.9671,48.7861],[-1.0895,48.7815],[-1.1326,48.8488],[-1.0712,48.8703],[-0.9427,48.9677],[-0.8691,49.0679],[-0.8866,49.1294],[-0.9315,49.1456],[-0.9009,49.203],[-1.0227,49.2034],[-1.1134,49.2613],[-1.1395,49.3099],[-1.1196,49.3556]]]},"properties":{"code":"50","nom":"Manche"}},
{"type":"Feature","geometry":{"type":"MultiPolygon","coordinates":[[[[-3.2354,47.3238],[-3.0866,47.2831],[-3.0931,47.3151],[-3.1559,47.3611],[-3.2488,47.3796],[-3.2354,47.3238]]],[[[-2.2873,48.1337],[-2.3714,48.1221],[-2.4089,48.1686],[-2.4948,48.1578],[-2.5748,48.0704],[-2.6312,48.0355],[-2.6701,48.0479],[-2.6523,48.1193],[-2.7819,48.1206],[-2.9537,48.1708],[-3,48.1617],[-3.0335,48.1994],[-3.1164,48.2064],[-3.1553,48.1585],[-3.1925,48.1644],[-3.2722,48.14],[-3.3368,48.1711],[-3.4795,48.186],[-3.5648,48.1857],[-3.6958,48.1522],[-3.7321,48.1091],[-3.695,48.0935],[-3.6402,47.9852],[-3.5553,47.9931],[-3.4848,47.9669],[-3.3926,47.9545],[-3.4034,47.8701],[-3.523,47.8491],[-3.5299,47.7825],[-3.5002,47.7315],[-3.4528,47.6953],[-3.3442,47.7084],[-3.2081,47.6634],[-3.2098,47.6407],[-3.1233,47.5695],[-2.9752,47.5761],[-2.8512,47.619],[-2.7786,47.6192],[-2.702,47.5899],[-2.7305,47.5425],[-2.8136,47.553],[-2.8716,47.5322],[-2.8002,47.4873],[-2.6643,47.5186],[-2.5562,47.5128],[-2.5371,47.5257],[-2.4412,47.4962],[-2.4585,47.4481],[-2.3129,47.4645],[-2.2991,47.5005],[-2.2443,47.4936],[-2.1073,47.5311],[-2.0869,47.6028],[-2.097,47.6314],[-2.1315,47.7222],[-2.0897,47.7386],[-2.0495,47.8169],[-2.1163,47.881],[-2.0791,47.9195],[-2.1369,47.9791],[-2.2396,47.9995],[-2.2796,48.0264],[-2.2332,48.0756],[-2.2873,48.1337]]]]},"properties":{"code":"56","nom":"Morbihan"}},
{"type":"Feature","geometry":{"type":"Polygon","coordinates":[[[2.0677,51.0065],[2.0976,50.9984],[2.1839,50.8835],[2.2134,50.8105],[2.3409,50.7409],[2.4078,50.6728],[2.4959,50.6312],[2.6305,50.618],[2.7138,50.6313],[2.769,50.6637],[2.8405,50.6566],[2.8052,50.6033],[2.826,50.5254],[2.899,50.5016],[2.9647,50.5128],[3.0208,50.4818],[3.0377,50.4416],[2.9931,50.3798],[3.1734,50.2411],[3.1561,50.1837],[3.0958,50.1242],[3.1141,50.0922],[3.0903,50.0537],[3.1727,50.012],[3.2305,50.0313],[3.2802,50.0152],[3.353,50.0359],[3.4914,50.0189],[3.5448,50.0538],[3.6136,50.0254],[3.7152,50.0693],[3.7464,50.0536],[3.9235,50.0264],[3.9804,49.9954],[4.0871,49.9692],[4.1409,49.9788],[4.1622,50.049],[4.228,50.0664],[4.1999,50.1311],[4.1269,50.135],[4.1601,50.2025],[4.2219,50.257],[4.1367,50.2743],[4.12,50.3001],[4.0376,50.343],[3.9679,50.3504],[3.8898,50.33],[3.8528,50.3516],[3.7474,50.3509],[3.6944,50.3158],[3.6583,50.3713],[3.6642,50.4532],[3.613,50.4925],[3.474,50.5336],[3.3739,50.4918],[3.2865,50.5276],[3.2703,50.6108],[3.2485,50.638],[3.2584,50.7006],[3.1912,50.7244],[3.152,50.7823],[3.0614,50.7805],[2.9381,50.7443],[2.8984,50.6942],[2.8133,50.7169],[2.7175,50.8136],[2.635,50.8128],[2.5996,50.8533],[2.6327,50.946],[2.576,51.0138],[2.543,51.0885],[2.4248,51.0556],[2.3478,51.0598],[2.1097,51.0038],[2.0677,51.0065]]]},"properties":{"code":"59","nom":"Nord"}},
{"type":"Feature","geometry":{"type":"Polygon","coordinates":[[[5.8847,47.926],[5.8214,47.8682],[5.7612,47.8593],[5.7461,47.8236],[5.6903,47.8186],[5.6766,47.7792],[5.7092,47.7448],[5.6901,47.6848],[5.5967,47.6717],[5.4826,47.6846],[5.4063,47.6734],[5.3741,47.6045],[5.4259,47.6321],[5.4775,47.6087],[5.4969,47.5441],[5.4471,47.4963],[5.3992,47.499],[5.4514,47.3841],[5.4969,47.3901],[5.4928,47.3321],[5.5185,47.3042],[5.6021,47.2605],[5.6987,47.265],[5.9414,47.3443],[5.9894,47.3276],[6.08,47.354],[6.2623,47.4306],[6.3343,47.506],[6.4014,47.5203],[6.5536,47.4928],[6.5818,47.5399],[6.6467,47.5353],[6.6856,47.563],[6.781,47.5364],[6.807,47.5628],[6.7804,47.6253],[6.7802,47.6897],[6.7576,47.7479],[6.8235,47.8131],[6.7848,47.8496],[6.6455,47.904],[6.6018,47.9444],[6.5422,47.9026],[6.4786,47.8855],[6.4317,47.9438],[6.3662,47.9619],[6.2773,47.9538],[6.238,47.9328],[6.168,47.9524],[6.1561,48.0069],[6.0726,48.0157],[6.0023,47.9561],[5.9475,47.9797],[5.8847,47.926]]]},"properties":{"code":"70","nom":"Haute-Saône"}},
{"type":"Feature","geometry":{"type":"Polygon","coordinates":[[[-0.0545,48.382],[-0.138,48.3614],[-0.1389,48.2984],[-0.1631,48.2555],[-0.1468,48.205],[-0.2499,48.1571],[-0.2172,48.107],[-0.2309,48.059],[-0.3417,48.0431],[-0.2826,47.9582],[-0.3848,47.9308],[-0.3707,47.88],[-0.4479,47.8322],[-0.3882,47.8053],[-0.3817,47.7606],[-0.3341,47.7212],[-0.2331,47.7076],[-0.1932,47.6479],[-0.135,47.6325],[-0.0718,47.658],[-0.0045,47.6477],[0.0517,47.6065],[0.1157,47.6057],[0.1516,47.5815],[0.23,47.6084],[0.3233,47.5929],[0.379,47.5691],[0.4566,47.6388],[0.5429,47.6562],[0.6144,47.6942],[0.5805,47.7123],[0.7126,47.79],[0.7746,47.8397],[0.7599,47.8982],[0.8458,47.9414],[0.8243,47.9821],[0.8405,48.021],[0.7975,48.0376],[0.8412,48.1031],[0.8825,48.1618],[0.7977,48.1945],[0.7378,48.1891],[0.6832,48.2486],[0.536,48.2498],[0.4876,48.3078],[0.4313,48.3066],[0.3826,48.3338],[0.364,48.4516],[0.2959,48.4802],[0.1898,48.4619],[0.1162,48.4356],[0.0625,48.3822],[-0.0026,48.3973],[-0.0545,48.382]]]},"properties":{"code":"72","nom":"Sarthe"}},
{"type":"Feature","geometry":{"type":"Polygon","coordinates":[[[1.3797,50.065],[1.4465,50.0693],[1.4565,50.0378],[1.5739,49.9739],[1.594,49.9491],[1.6785,49.9181],[1.7125,49.8864],[1.7271,49.8289],[1.7838,49.7583],[1.8939,49.699],[1.9332,49.7196],[2.1214,49.6881],[2.2472,49.7016],[2.3731,49.6563],[2.5047,49.6395],[2.5715,49.5971],[2.6707,49.5814],[2.6891,49.6256],[2.7995,49.6206],[2.7936,49.656],[2.9157,49.7027],[3.063,49.7126],[3.1184,49.706],[3.0787,49.8224],[3.118,49.9143],[3.1927,49.9775],[3.1727,50.012],[3.0903,50.0537],[3.0144,50.0591],[2.9715,50.0414],[2.8765,50.0422],[2.8578,50.0774],[2.576,50.1134],[2.5513,50.1416],[2.4767,50.137],[2.4145,50.1006],[2.3898,50.1555],[2.4957,50.1946],[2.4518,50.2303],[2.3702,50.2098],[2.2738,50.2268],[2.0957,50.2055],[2.0778,50.2488],[1.9461,50.2874],[1.918,50.3118],[1.7788,50.3619],[1.6707,50.331],[1.6415,50.3521],[1.5509,50.3503],[1.5379,50.2827],[1.5903,50.2559],[1.4787,50.1649],[1.4539,50.1103],[1.3797,50.065]]]},"properties":{"code":"80","nom":"Somme"}},
{"type":"Feature","geometry":{"type":"Polygon","coordinates":[[[2.2266,48.7761],[2.1119,48.7396],[2.0822,48.6859],[2.02,48.6421],[2.0176,48.5576],[1.9674,48.5331],[1.9221,48.4576],[1.9306,48.4041],[1.9766,48.3994],[1.9941,48.2866],[2.1814,48.3137],[2.3698,48.3087],[2.4027,48.3207],[2.4298,48.362],[2.5337,48.4113],[2.5048,48.4394],[2.4995,48.5252],[2.5438,48.6039],[2.5336,48.6573],[2.5717,48.692],[2.5035,48.7352],[2.3707,48.7202],[2.3207,48.7488],[2.2266,48.7761]]]},"properties":{"code":"91","nom":"Essonne"}},
{"type":"Feature","geometry":{"type":"Polygon","coordinates":[[[1.7044,49.2322],[1.6757,49.2119],[1.6558,49.1302],[1.6088,49.0779],[1.6737,49.0782],[1.7235,49.045],[1.8239,49.0764],[1.9085,49.048],[1.9378,49.0218],[2.0248,48.9988],[2.0849,49.0147],[2.2059,48.9497],[2.2006,48.9087],[2.291,48.951],[2.3664,48.9742],[2.4595,48.955],[2.5531,49.0098],[2.5905,49.0797],[2.4409,49.1458],[2.3463,49.1618],[2.3109,49.1864],[2.2525,49.1529],[2.0809,49.2098],[1.9968,49.1765],[1.8852,49.1626],[1.7955,49.1853],[1.7421,49.1802],[1.7044,49.2322]]]},"properties":{"code":"95","nom":"Val-d'Oise"}},
{"type":"Feature","geometry":{"type":"Polygon","coordinates":[[[0.8412,48.1031],[0.7975,48.0376],[0.8405,48.021],[0.8243,47.9821],[0.8458,47.9414],[0.7599,47.8982],[0.7746,47.8397],[0.7126,47.79],[0.5805,47.7123],[0.6144,47.6942],[0.7121,47.6818],[0.7353,47.6954],[0.8595,47.6692],[0.8639,47.5996],[0.919,47.6326],[1.0334,47.607],[1.0763,47.5632],[1.0453,47.5315],[1.1324,47.4465],[1.1075,47.4113],[1.1228,47.354],[1.1081,47.2984],[1.1621,47.2722],[1.2235,47.2941],[1.2769,47.2547],[1.3267,47.1862],[1.4485,47.238],[1.5924,47.2767],[1.7058,47.2659],[1.7761,47.2314],[1.8391,47.2193],[1.9041,47.2157],[1.9408,47.2901],[1.997,47.2654],[2.139,47.2855],[2.1017,47.3868],[2.2382,47.4723],[2.1956,47.5486],[2.1313,47.5503],[2.128,47.5847],[2.2392,47.621],[2.2026,47.6781],[2.0736,47.6818],[1.9424,47.6756],[1.8437,47.6863],[1.7986,47.6384],[1.7399,47.6615],[1.6973,47.7384],[1.5479,47.7698],[1.5337,47.8205],[1.5881,47.8764],[1.5254,47.9291],[1.5201,47.9823],[1.4552,48.0086],[1.4372,47.9765],[1.3086,47.9539],[1.2096,47.9685],[1.1212,48.0391],[1.1122,48.0807],[1.0086,48.0831],[0.9973,48.1275],[0.8909,48.1021],[0.8412,48.1031]]]},"properties":{"code":"41","nom":"Loir-et-Cher"}},
{"type":"Feature","geometry":{"type":"Polygon","coordinates":[[[-0.8604,48.5015],[-0.9564,48.5166],[-1.004,48.4892],[-1.0702,48.5085],[-1.0828,48.4331],[-1.045,48.3277],[-1.1001,48.2593],[-1.0496,48.0898],[-1.0233,48.0689],[-1.0213,47.9949],[-1.1027,47.9891],[-1.154,47.9658],[-1.1892,47.868],[-1.2382,47.81],[-1.1426,47.7744],[-1.0999,47.782],[-0.9787,47.762],[-0.952,47.7965],[-0.8393,47.7523],[-0.8161,47.7712],[-0.7417,47.7381],[-0.6108,47.7357],[-0.4604,47.7651],[-0.3817,47.7606],[-0.3882,47.8053],[-0.4479,47.8322],[-0.3707,47.88],[-0.3848,47.9308],[-0.2826,47.9582],[-0.3417,48.0431],[-0.2309,48.059],[-0.2172,48.107],[-0.2499,48.1571],[-0.1468,48.205],[-0.1631,48.2555],[-0.1389,48.2984],[-0.138,48.3614],[-0.0545,48.382],[-0.0519,48.4533],[-0.1487,48.4581],[-0.1694,48.537],[-0.2069,48.5629],[-0.2782,48.507],[-0.3202,48.5229],[-0.3676,48.4929],[-0.4308,48.5118],[-0.5051,48.5058],[-0.5517,48.4731],[-0.654,48.4443],[-0.7573,48.4366],[-0.8604,48.5015]]]},"properties":{"code":"53","nom":"Mayenne"}},
{"type":"Feature","geometry":{"type":"Polygon","coordinates":[[[5.4709,49.4972],[5.4618,49.4527],[5.5291,49.4074],[5.6346,49.4374],[5.6881,49.4151],[5.7318,49.3113],[5.719,49.216],[5.7655,49.1981],[5.7445,49.1566],[5.7634,49.1079],[5.8186,49.0862],[5.8542,49.0424],[5.8231,49.0231],[5.8002,48.9467],[5.7472,48.9153],[5.781,48.8267],[5.7677,48.7901],[5.714,48.7445],[5.7577,48.6957],[5.7618,48.6094],[5.7161,48.5614],[5.7762,48.5404],[5.7652,48.4965],[5.8561,48.5068],[5.9616,48.3499],[6.1167,48.354],[6.1784,48.3976],[6.567,48.419],[6.585,48.4605],[6.6995,48.4131],[6.8152,48.3988],[6.8908,48.4181],[6.983,48.4791],[7.1232,48.5136],[7.0794,48.5364],[6.9829,48.6119],[6.8441,48.626],[6.7547,48.6694],[6.6923,48.6728],[6.6584,48.708],[6.599,48.7157],[6.5541,48.7541],[6.4536,48.7659],[6.4335,48.789],[6.355,48.7817],[6.3389,48.8341],[6.272,48.9331],[6.1322,48.9347],[6.1169,48.9678],[6.0434,48.9775],[6.045,49.0104],[5.9354,49.0719],[5.9316,49.1091],[6.0261,49.1651],[5.9876,49.2096],[6.0294,49.2305],[5.9285,49.3755],[5.9426,49.4529],[5.8934,49.4969],[5.7939,49.5512],[5.7153,49.5393],[5.6598,49.5529],[5.6159,49.5271],[5.5561,49.5293],[5.4709,49.4972]]]},"properties":{"code":"54","nom":"Meurthe-et-Moselle"}},
{"type":"Feature","geometry":{"type":"Polygon","coordinates":[[[-0.892,46.9758],[-0.8291,46.9334],[-0.8153,46.8794],[-0.7816,46.8428],[-0.7009,46.8086],[-0.7273,46.7676],[-0.6562,46.7008],[-0.6441,46.638],[-0.6141,46.6204],[-0.6021,46.5333],[-0.6335,46.5265],[-0.6124,46.4587],[-0.6406,46.4162],[-0.5378,46.3865],[-0.5576,46.3635],[-0.7505,46.3043],[-0.7515,46.2451],[-0.6907,46.2192],[-0.62,46.1378],[-0.547,46.1442],[-0.5061,46.1067],[-0.4005,46.0847],[-0.2817,46.0797],[-0.1029,45.9697],[-0.0414,45.9935],[-0.032,46.0559],[0.0193,46.0528],[0.073,46.0939],[0.1974,46.0956],[0.2149,46.1388],[0.1551,46.1572],[0.1128,46.2109],[0.1288,46.2672],[0.1774,46.3281],[0.1376,46.3494],[0.0782,46.3049],[0.0376,46.3255],[0.0342,46.3735],[-0.0171,46.4113],[-0.0314,46.525],[0.026,46.5947],[-0.0265,46.6289],[-0.0404,46.6637],[0.0007,46.7162],[-0.0203,46.8126],[-0.009,46.9075],[-0.0877,47.0231],[-0.1021,47.0648],[-0.1284,47.0544],[-0.1848,47.1083],[-0.2415,47.1057],[-0.4008,47.0708],[-0.4953,47.0824],[-0.5595,47.0619],[-0.5655,47.0194],[-0.62,46.9933],[-0.7131,46.9861],[-0.7739,47.0042],[-0.892,46.9758]]]},"properties":{"code":"79","nom":"Deux-Sèvres"}},
{"type":"Feature","geometry":{"type":"Polygon","coordinates":[[[6.8235,47.8131],[6.7576,47.7479],[6.7802,47.6897],[6.7804,47.6253],[6.807,47.5628],[6.9057,47.5474],[6.9076,47.4945],[6.9405,47.4334],[6.999,47.4523],[6.9831,47.4933],[7.0793,47.4889],[7.1303,47.503],[7.0863,47.5926],[7.0254,47.5927],[7.005,47.6194],[7.0463,47.6715],[7.016,47.7432],[6.8635,47.7852],[6.8462,47.8229],[6.8235,47.8131]]]},"properties":{"code":"90","nom":"Territoire de Belfort"}}
]}